Name,Address1,Address2,City,State,ZIP,Country
"The ""O""",346 Hwy 87 N,,Cochran,GA,31014,United States
109 Mini Mall,606 N. Broadway,,Portland,TN,37148,United States
112 Antique Mall,8759 Highway 25 East,,Cross Plains ,TN,37049,United States
125 Antiques and More,53 Church Street,Unit 17,Kingston,MA,3848,United States
17 On The Square,17 Lincoln Square,,Gettysburg,PA,17325,United States
1919 Antiques,129 N. Cecil St.,,Bonduel,WI,54107,United States
1st Street Antiques,297 N. 1st St.,,Kalama,WA,98625,United States
2 Chicks Home and Market,311 West Main St.,,Denison,TX,75020,United States
2 Twisted Sisters,112 South Spring St.,,Beaver Dam,WI,53916,United States
2113 Serendipty / Town Square Antique Mall,118 E. Mulberry St.,,Collierville,TN,38017,United States
2CS Vendor Mall,215 South 1st St.,,Saint Helens,OR,97051,United States
2nd Life Antiques,200 East Broad St.,,Quakertown,PA,18951,United States
3 Rusty Nails Shoppe,895 Conner Street,,Noblesville,IN,46060,United States
3 Sisters Flea Market,6997 Hwy 165,,Columbia,LA,71418,United States
3 Twenty 3 Vintage Market,16140 Kuykendahl Rd.,Suite 100,Houston,TX,77068,United States
The 3 Weird Sisters Studio,5 E. Main St.,,Troy,OH,45373,United States
4 Mile Treasures,5099 Jefferson Davis Hwy,Suite E,Fredericksburg,VA,22408,United States
44 Marketplace,"103 Harmony Crossing, Ste 1",,Eatonton,GA,31024,United States
45 Flea Market & Antiques and Amish Store,7890 Highway 45 North,,Marion,MS,39342,United States
4th Street Mercantile,201 W. 4th St.,,Taylor,TX,76574,United States
509 Farmhouse,217 W. Kennewick Ave.,,Kennewick,WA,99301,United States
605 Antiques,3201 S. Shirley Ave.,,Sioux Falls,SD,57106,United States
608 Vintage,34 S. Main St.,,Janesville,WI,53545,United States
66 Unique Antiques,220 N. Main St.,,Nashville,MI,49073,United States
98 Treasures,3040 Gulfbreeze Pkwy.,,Gulf Breeze,FL,32563,United States
A Crafters Paradise,498 5th Street,,Gustine,CA,95322,United States
A Daisy a Day Vintage and Antique Marketplace,,,Gallatin,TN,,United States
A Junkin' Ginger,1403 West Webb Ave.,,Burlington,NC,27217,United States
A Piece of the Past,425 -D Alisal Rd,,Solvang,CA,93463,United States
A Stroll Down Memory Lane,,,Galeton,PA,,United States
A Sweet Southern Mess Antique Mall,210 E. Murphy St.,,Madison,NC,27025,United States
A Vintage Co-Op,119 4th Street,,Baraboo,WI,53913,United States
A Vintage Market Place,6370 North Highway US1,,Melbourne,FL,32940,United States
A Work of Art Gallery & Gifts,600 State St.,,Bristol,TN,37620,United States
A&W Collectables Antique Mall,3714 Richmond Rd.,,Keswick,VA,22947,United States
Aberdeen,394 Madawaska Rd.,,Pittsfield,ME,4967,United States
About Time Antiques and Finds,615 Pass Rd.,,Gulfport,MS,39501,United States
Ab's Fine Things,119 E. Jackson St.,,Harlingen,TX,78550,United States
Action Antiques & Collectibles,1838 Winfield Dunn,,Sevierville,TN,37876,United States
Adorables Consignment,5800 Appalachian Hwy,,Blue Ridge,GA,30555,United States
Ain't-It-Qute,,,Hot Springs,AR,,United States
Alabaster Corner,2441 S. US-23,,Tawas City,MI,48763,United States
Alamance Antique & Consignment Mall,2602 Eric Lane,,Burlington,NC,27215,United States
Alice Circle,1012 Main Street West,,Rainsville,AL,35986,United States
All About Antiques,,,Pensacola,FL,,United States
Alley Cat Antiques,301 & 309 Commercial Ave.,,Anacortes,WA,98221,United States
Alley Cat Vintage Mercantile,900 Indiana Ave.,,Wichita Falls,TX,76301,United States
"Altamont Vintage, Collectibles, & Antiques",120 Swannanoa River Road,,Asheville,NC,28805,United States
Altar'd Interiors,1640 E. Main St.,,League City,TX,77573,United States
Alton Exchange Mall,2990 Homer Adams Pkwy.,,Alton,IL,62002,United States
Alyssa's Antique Depot,4586 Chumuckla Hwy.,,Pace,FL,32571,United States
Amazing Finds,1558 Airport Rd.,Suite H,Hot Springs,AR,71968,United States
Ambassadors,6-8 Frederick St.,,Taneytown,MD,21787,United States
American House Antiques,101 West Main St.,,Centerville,IN,47330,United States
The Amish Mall,1216 West Bristol St.,,Elkhart,IN,46514,United States
An Indulgence,404 Main St.,,Safety Harbor,FL,34695,United States
"Angel~Bear Antiques, LLC",509 N. College St.,,Franklin,KY,42134,United States
Another Vice & Company,101 West Chicago Blvd.,Suite 180,Tecumseh,MI,49286,United States
Anteeks on Menaul,8908 Menaul Blvd. NE,,Albuquerque,NM,87112,United States
Antigone's Downtown,110 St. Joseph Ave.,,Brewton,AL,36426,United States
Antique & Chic Winfield,0S125 Church St.,,Winfield,IL,60190,United States
Antique Addiction,3529 W. Emory Road,,Powell,TN,37849,United States
Antique Adventures,N7335 Benson Blvd.,,Trego,WI,54888,United States
Antique Angels LLC,129 S. Foster St.,,Slocomb,AL,36375,United States
Antique Attics LLC,2789 Middle Country Rd.,,Lake Grove,NY,11755,United States
The Antique Barn,77070 Gallatin Rd.,,Gallatin Gateway,MT,59730,United States
Antique Broker,1438 S. Broadway,,Denver,CO,80232,United States
Antique Carriage,85 W. Wesmark,,Sumter,SC,29150,United States
Antique Corner,500 Ferry St.,,Martinez,CA,94553,United States
Antique Emporium,818 7th Ave.,,Beaver Falls,PA,15010,United States
Antique Emporium,2601 Emogene St.,,Mobile,AL,,United States
Antique Emporium at Park,2762 Park St.,,Jacksonville,FL,32222,United States
Antique Gallery in Delano,1642 West Douglas,,Wichita,KS,67203,United States
Antique Mall,220 Depot St.,,Mabscott,WV,25801,United States
The Antique Mall of Warner Robins,,,Warner Robins,GA,,United States
Antique Mall Ohio River,4331 Ohio River Boulevard,,Bellevue,PA,15202,United States
Antique Market on Linden,2828 Linden Avenue,,Homewood,AL,35209,United States
Antique Marketplace,10100 Pensacola Blvd.,,Pensacola,FL,32534,United States
Antique Marketplace of Beavercreek,3491 Dayton-Xenia Rd.,,Beavercreek,OH,45432,United States
Antique Theatre,806 Commerce St.,,Perry,GA,31069,United States
Antique-ish LLC,840 West Harmony,,Neosho,MO,64850,United States
Antiques & More,10345 Auto Mall Pkwy.,,Diberville,MS,39540,United States
Antiques & More of Houston,1801 South Dairy Ashford,,Houston,TX,77077,United States
Antiques & Treasures,629 Main St.,,Ramona,CA,92065,United States
Antiques & Uniques in Ozona,303 Orange St.,,Ozona,FL,34660,United States
Antiques @ Distillery Commons,200 Distillery Commons,Suite 460,Louisville,KY,40206,United States
Antiques and Art on Main,221 S Main St.,,Pendleton,OR,97801,United States
Antiques and More Treasures,329 South 8th Street ,,Fernandina Beach,FL,32097,United States
Antiques For You,801 Blanding Blvd.,Suite 1,Orange Park,FL,32065,United States
Antiques In Old Town,93 Main Street,,Lilburn,GA,30048,United States
Antiques of Montana,,,Great Falls,MT,59405,United States
Antiques on 23rd,513 23rd St.,,Galveston,TX,77550,United States
Antiques on Elm,321 Elm Street,,Manchester,NH,3101,United States
Antiques on First,121 1st Ave S,,Lewisburg,TN,37091,United States
Antiques on High,55 High Street,,Carroll,OH,43112,United States
Antiques on Highway 48,23906 Highway 48,,Georgina,ON,LOE 1AO,Canada
Antiques on Main,202 S. Main St.,,Waupaca,WI,54981,United States
Antiques on Second,1370 2nd Street,,Napa,CA,94559,United States
The Antiques Parlour,208 Grove Ave. SW,,Cleveland,TN,37311,United States
Antiques Plus of Bowdon,85 Kidsteace Drive,,Bowdon,GA,30108,United States
"Antiques, Etc.",824 Big Horn Ave,,Worland,WY,82401,United States
Antiquing Brazoria County Co-op,1004 West Hwy 6,,Alvin,TX,77511,United States
Antoinette's,5118 Pine Ave.,,Pasadena,TX,77503,United States
Archive Antiques,959 Fulton St. E.,,Grand Rapids,MI,49503,United States
Archusa Creek Mall,106 Church St.,,Quitman,MS,39355,United States
"Area 331 Antiques, LLC",331 South Lumpkin St.,,Lilburn,GA,,United States
The Ark Antiques and Flea Market,301 South Main St.,,McPherson,KS,67460,United States
Art & Soul 30a LLC,5399 E. County Hwy. 30a,Suite 444,Santa Rosa Beach,FL,32459,United States
Art In Bloom Gallery,210 Princess St.,,Wilmington,NC,28401,United States
Arthur & Arthur Vintage Marketplace,3721 Hwy 29 South,,Hull,GA,30646,United States
"Artisan Love, LLC",3555 68th St. SE,Suite 6 & 7,Caledonia,MI,49316,United States
The Artist Mill at Old Towne,9144 Pidgeon Roost Road,,Olive Branch,MS,38654,United States
Arts ~ Antiques of Pendleton,132 West State St.,,Pendleton,IN,46064,United States
The Arts Barn,3 Berry Road,,Schuylkill Haven,PA,17972,United States
As You Wish Interiors LLC,3303 Frederica Road,,St. Simons Island,GA,31522,United States
A-Se-Ma Tobacco & Pipeshop,113 NW Main St.,,Mahnomen,MN,56557,United States
Ashland Art Center,357 East Main St,,Ashland,OR,97520,United States
Ashland Artisan Emporium,1670 Ashland St.,,Ashland,OR,97520,United States
Athens Antique and Vintage,4615 Atlanta Hwy,,Athens,GA,30606,United States
Atomic,260 West Clayton St.,,Athens,GA,,United States
Atrium Mini Mall,5009 Hwy 493,,Meridian,MS,39305,United States
The Attic,1212 Luttrell St.,,Blue Springs,MO,64015,United States
Attic Addict,370 N. Locust,,Manteno,IL,60950,United States
Auglaize Antique Mall,116 West Auglaize St.,,Wapakoneta,OH,45895,United States
Aurora Arts & Design Center,371 Main Street,,Aurora,NY,13026,United States
Austin Street Vintage,519 N. Austin St.,,Seguin,TX,78155,United States
Autumn's Attic,428 Main St.,,Canon City,CO,81212,United States
B & H Market on the Dan,100 Commerce St.,,Danville,VA,24541,United States
Back Alley Pickers,119 Hardees Alley,,Newland,NC,28657,United States
Back In The Day,,,Claremore,OK,,United States
Back Porch Antiques and Collectables,750 West Andrew Johnson Hwy,,Greeneville,TN,37745,United States
Back Roads Antiques,306 West State St.,,Williamsburg,IA,52361,United States
Backbay Emporium,1513 19th Street,,Galveston,TX,77550,United States
BackPorch Antiques,550 Broadway,,Marine City,MI,48039,United States
"Backroad Treasures, LLC",1903 Sycamore Springs Road,,Mountain Home,AR,72653,United States
Baileyton Antique Mall,50 Bailey St.,,Greeneville,TN,37745,United States
Bank Street Antiques,818 Bank Street NE,,Decatur,AL,35601,United States
Baraboo Vintage and Seek Boutique,115 4th Street,,Baraboo,WI,53913,United States
Bargain Hunters Antique and Flea Market Mall,2808 West Market St.,,Johnson City,TN,37604,United States
Bargain Hunters Antique and Flea Market Mall,4006 Chapman Hwy.,,Knoxville,TN,,United States
Bargain Hunters Flea Market Mall,1111 Bluff City Hwy.,,Bristol,TN,37620,United States
The Barn,102 E. South St.,,Ozark,MO,65721,United States
The Barn Antiques & Unique,22390 El Camino Real,,Santa Margarita,CA,93453,United States
Barn Door Boutique,52000 Glen Arm Road,Suite F,Glen Arm,MD,21057,United States
The Barn Vintage Treasures,816 15 St. N.,,Great Falls,MT,59401,United States
The Basement Marketplace,14627 Lebanon Rd.,,Old Hickory,TN,37138,United States
Baxter's Mercantile,120 West 7th St.,,Columbia,TN,38401,United States
Be Boutique & Botanicals,72 South Broad St.,,Brevard,NC,28712,United States
Be Inspired,2976 Penn Ave.,,Marianna,FL,32448,United States
Beach House 5317,5317 Gulfport Blvd. S,,Gulfport,FL,33712,United States
Bears Valley Antiques,3360 Wears Valley Rd #1,,Sevierville,TN,37862,United States
Beehive Antiques,1019 Ridgewood Ave,,Holly Hill,FL,32117,United States
The Bee's Knees,511 Alexis Dr.,,Searcy,AR,72143,United States
Bella Antiques LLC,311 Market St.,,Tomball,TX,77375,United States
Bella Blues Designs Co,1902 Forsight Ave.,,Monroe,LA,71201,United States
Bella Design,107 S. Canyon St.,,Carlsbad,NM,88220,United States
Bella Vintage Antique Mall,703 Hwy 31 NW,,Hartselle,AL,35640,United States
Belle Flower Floral & Gifts,423 C S. Main St.,,Dawson,GA,39842,United States
Belles And Whistles Southern Market,102 Eglin Pkwy,,Fort Walton Beach,FL,32547,United States
Benton Central Station,1209 Military Road,,Benton,AR,72015,United States
Berea's Unknown Treasures,216 Mt. Vernon Rd.,,Berea,KY,40403,United States
Berkeley Springs Factory Mall,282 Williams Street,,Berkeley Springs,WV,25411,United States
Bettie and Belindas,,,Alvin,TX,,United States
Between the Vines,379 Largemouth Lane,,Spring City,TN,37381,United States
Between the Vines - Christmas at the Barn,379 Largemouth Lane,,Spring City,TN,37381,United States
Beverly Gilchrist,,,Lexington,NC,,United States
Beyond Vintage,390 Highway 149,Suite A,Clarksville,TN,37040,United States
Big Daddy's Swap Shop,1145 E. St. Marks Church Rd.,,Burlington,NC,27215,United States
Big Mill Co - Artisans & Antiques,,,Fort Payne,AL,,United States
Big Peach Antiques Mall,119 Peachtree Blvd.,,Byron,GA,31008,United States
BIG RIVER Antiques,,,Le Claire,IA,,United States
The Big Top,920 Lafayette Rd.,,Seabrook,NH,3874,United States
The Birdcage,1901 Sunset Dr.,,Poplar Bluff,MO,63901,United States
Birds Gotta Fly,916 N. Michigan St.,,Elkhart,IN,46514,United States
Bits of Time,,,Bedford,PA,,United States
Bittersweet And Barbed Wire,,,Crystal City,MO,,United States
Bittersweet Blessings,20 Chester St.,,Chester,NH,3036,United States
BK Trading Company,,,Poplar Bluff,MO,,United States
Black Barn Antiques & Marketplace,173 Mahaffey St.,,Jefferson,GA,30549,United States
Black Dog Vintage Store,6770 Shallowford Rd.,,Lewisville,NC,,United States
Black Sheep Collectibles,16351 Lee Highway,,Gainesville,VA,20155,United States
Blackbird Granary Antiques,,,Mount Angel,OR,,United States
Blackwater Trail Antiques & More,6705 Berryhill Street,,Milton,FL,32570,United States
The Blanket Store Market,6307 Highway 41A,,Pleasant View,TN,37146,United States
Bless UR Heart Boutique,117 S. Main St.,,Owasso,OK,74055,United States
The Blessed Nest,2518 Ave. R,,Snyder,TX,79549,United States
Bliss Boutique & Gifts,610 Main Street,,Arkadelphia,AR,71923,United States
Bloomin' Deals,252 Highway 52,,Portland,TN,37148,United States
Blu ByJaydee,7967 Hwy 72 West,,Madison,AL,35758,United States
The Blue Door,4 E. Yanonali St.,,Santa Barbara,CA,93101,United States
Blue Heron Antique Mall,73 West Underwood Street,,Cleveland,GA,30528,United States
Blue Moon Antiques,1840 Watson Blvd,B,Warner Robins,GA,31093,United States
Blue Owl Antiques,145 River St.,,Elk Rapids,MI,49629,United States
Blue Willow Exchange,103 S. Saginaw,,Holly,MI,48442,United States
Bluebird off the Square,202 West Alamo Street,,Brenham,TX,77833,United States
bluewater gift shop,538 Broadway,,Marine City,MI,48039,United States
The Bohemian,12019 E Sprague Ave,,Spokane Valley,WA,99206,United States
The Bohemian North,7503 North Division,,Spokane,WA,99208,United States
Bohemian Rhapsody II,134 West Milam,,Wharton,TX,77488,United States
Bo-Mar Hall Antiques & Collectibles,1622 Post Rd.,,Wells,ME,4090,United States
Bombshell Boutique,2040 East Main St.,Unit B3,Ventura,CA,93001,United States
Bon Bon Vintage,3821 South Tuttle Ave.,,Sarasota,FL,34240,United States
Bonnie Blue's,,,Burlington,NC,,United States
Borelli's Emporium,1904 2nd Ave. N,,Bessemer,AL,35020,United States
Bostwick's Antique Mall,1121 Owego Rd,,Candor,NY,13743,United States
Bottle House Antiques,701 S. Main St.,,Shawano,WI,54166,United States
Boulevard Antiques & Vintage,130 Commerce Blvd.,,Athens,GA,30606,United States
Boulevard Treasures,1908 Thomas Bishop Ct.,,Virginia Beach,VA,23454,United States
Boutique Bella,103 E. Main St.,,Ardmore,OK,73401,United States
Boxcar Treasures,3110 Hwy 92,,Ainsworth,IA,52201,United States
Boxcar Treasures,211 4th Street,,Kalona,IA,52247,United States
Boxcar Treasures,307 E 5th Street,,Washington,IA,52353,United States
Brass Armadillo - Denver,,,Denver,CO,,United States
Brass Armadillo - Des Moines,,,Des Moines,IA,,United States
Brass Armadillo - Kansas City,,,Kansas City,MO,,United States
Brass Armadillo - Office,,,Phoenix,AZ,,United States
Brass Armadillo - Omaha,,,Omaha,NE,,United States
Brass Armadillo - Phoenix,12419 N. 28th Ave,,Phoenix,AZ,85029,United States
Brass Armadillo - Phoenix,,,Phoenix,AZ,,United States
Brass Armadillo - Phoenix West,,,Goodyear,AZ,,United States
The Brass Grasshopper,1325 Matthews-Mint Hill Road,,Matthews,NC,28105,United States
Brass Lantern Antiques,622 Trenton Avenue,,Point Pleasant,NJ,8742,United States
Briar Patch Vendor Mall,1215 E. 8th St.,,Odessa,TX,79761,United States
Brickerville Antiques Barn,2 East 28 Division Hwy,,Lititz,PA,17543,United States
Brighton Antiques & More,125 N. Main St.,,Brighton,TN,38011,United States
Bristol Galleria,33 Midway Street,,Bristol,VA,24201,United States
Broad Street Treasures,1017 Broad Street,,Camden,SC,29020,United States
Broadway Antiques & Uniques,129 East Broadway,,Enid,OK,73701,United States
Brocante,105 West 1st Steet,,Port Angeles,WA,98362,United States
Brocante Vintage Market,1409 E. Broussard St.,,Lafayette,LA,70508,United States
Brown Street Emporium,W359N5740 Brown St.,,Oconomowoc,WI,53066,United States
BS Stop on Route 66,290 E. Layton St.,,Chelsea,OK,74016,United States
Bucket List Antiques,300 N. Hamilton,,Dalton,GA,30720,United States
Bucket of Nails,32125 Temcula Parkway,Unit A,Temecula,CA,92590,United States
Bulas Antiques & Collectibles,323 Main St.,,Tifton,GA,31794,United States
The Burlap Bunny,808 Tusculum Bmvd.,,Greeneville,TN,37745,United States
Burlington Antique Mall,201 N. &th St.,Suite 102,Lincoln,NE,68508,United States
Butcher Block Antiques & More,216 West First St.,,Dixon,IL,61021,United States
Butlers Easy Pickins,26795 US Hwy 72,,Athens,AL,35613,United States
Calabash Trading Co. & Consignment,10102 Beach Dr.SW,,Calabash,NC,28467,United States
Camas Antiques,305 NE 4th Ave.,,Camas,WA,98607,United States
Camelback Antiques,2230 E. Indian School Rd.,,Phoenix,AZ,85016,United States
Cameo Cottage,6503 Slater Rd.,,East Ridge,TN,37412,United States
Camp Flea Antique Mall & Vintage Market,1900 W Elm St.,,Ozark,MO,65721,United States
Cana Mall Antiques and Consignments,14350 Fancy Gap Hwy.,,Cana,VA,24317,United States
Cantonment Mercantile,406 N. Hwy 29,,Cantonment,FL,32533,United States
Carnival of Collectables,368 Cross Keys Road,Suite B,Sicklerville,NJ,98981,United States
Carolina Peddlers,3540 East Elizabethtown Road,,Lumberton,NC,28358,United States
Carolina Trading Post,4105 S. Irby Street,,Florence,SC,29505,United States
The Carriage Place,,,Brockport,NY,,United States
The Carta Valley Market,229 East Brazos,,West Columbia,TX,77486,United States
Casa Chic,109 West Auglaize St.,,Auglaize,OH,45895,United States
Cast + Found Vintiques,126 North Main Street,,Goodlettsville,TN,37072,United States
Castaway Collectibles,P.O. Box 802,,Kitty Hawk,NC,,United States
Cellar Door,7967 Highway 72 West,,Madison,AL,35758,United States
Center Street Mercantile,100 West Center,Suite 02,Fayetteville,AR,72701,United States
Centerville Picker's Market,1508 Whitehall Rd,,Anderson,SC,29625,United States
Central City Antiques,10443 Joor,,Baton Rouge,LA,70818,United States
Central Park Antique Mall,701 19th Street,,Bakersfield,CA,93301,United States
Central Station Furniture Flea Market,3333 G Central Ave.,,Hot Springs,AR,71913,United States
Chaffinville Co-Op,211 Doyle Rd,,Holden,MA,1520,United States
Chandlers Antique & Artisan Market,448 N Keystone Ave,,Sayre,PA,18840,United States
Changing Thymes of West Michigan - East,2900 Wilson Avenue,,Grandville,MI,49418,United States
Changing Thymes of West Michigan - West,4187 Chicago Drive,Suite 6,Grandville,MI,49418,United States
Chateaux 117,117 East Main St.,,Ardmore,OK,73401,United States
Chattanooga Mercantile,6725 Ringgold Rd,,East Ridge,TN,37412,United States
Chatt-R-Bug,5231 Wilbanks Dr.,,Hixson,TN,37343,United States
Cheaha Antiques & Collectibles,1605 Hillyer Robinson Industrial Parkway South,,Oxford,AL,36203,United States
Chelsea's General Store & Pickin Post,113 S. Jefferson St.,,Rockeville,IN,47872,United States
Cherry Red Market,209 West Main St.,,Adair,OK,74330,United States
Cherry Red Market at Pryor Creek,8 South Adair,,Pryor,OK,74361,United States
Cherryland Antique Mall & Consignment Center,1719 S. Garfield Ave.,,Traverse City,MI,49686,United States
Chez Posh,109 N. Main Street,,Waupaca,WI,54983,United States
Chez What,204 South Ashley Street,,Valdosta,GA,31601,United States
Chic & Shabby Collections,716 Main St.,,Franklin,LA,70538,United States
Chirp Marketplace,4 Fulper Road,,Flemington,NJ,8822,United States
The Chirping Frog,7479 State Rt. 4,,Worden,IL,62097,United States
Chloe's Home Decor,562 N. Indian Rocks Rd.,,Belleair Bluffs,FL,33770,United States
Christine & Co.,617 West Lincoln Way,,Cheyenne,WY,82001,United States
Church Street Antique Market,1115 Church Street,,Covington,GA,30014,United States
Chymoons,2325 Winnie St.,,Galveston,TX,77550,United States
Circa Antiques,865 Senoia Rd.,,Tyrone,GA,30290,United States
Circa's Coffee House,865 Senoia Rd.,,Tyrone,GA,30290,United States
Circle A Antique Mall,8930 Wards Rd.,,Rustburg,VA,24588,United States
CKS This and That Antiques and Collectibles,200 N. 2nd St. ,,Dillsburg,PA,17019,United States
Claire's Antiques & Odd Balls Collectibles,8030 W. Broad St.,Ste E & F,Richmond,VA,23294,United States
Cleveland Collective,172 North Sharpe Ave.,,Cleveland,MS,38732,United States
Cleveland Collective Vendor Mall,172 North Sharpe Ave.,,Cleveland,MS,38732,United States
Clovis Antique Mall,532 5th St.,,Clovis,CA,93612,United States
Coalfield Station Antiques,13591 Midlothian Turnpike,,Midlothian,VA,23113,United States
Coastal Cottage,300 Corey Ave,,St. Pete Beach,FL,33706,United States
Coastal Cottage Emporium,17756-A Panama City Beach Pkwy,,Panama City Beach,FL,32413,United States
Coastal Market 607,607 Clearwater Largo  Road,,Largo,FL,33770,United States
Coastal Soul Boutique,400 Beach Dr. NE,,St. Petersburg,FL,33701,United States
Colby Flea Market,305 N. Franklin,,Colby,KS,67701,United States
"Coleman Antiques, LLC",404 West Will Rogers Blvd.,,Claremore,OK,74017,United States
Coles Corner Gift Shop,2244 Post Rd.,,Wells,ME,4090,United States
Coliseum Antiques,116-118 Maitland Road,,Mayfield,NSW,2304,Australia
Collector's Eye,,,Stratham,NH,,United States
Collectors Gallery II,,,Galveston,TX,,United States
Commerce Street Market,74 West Commerce Street,,Hernando,MS,38632,United States
Community Treasures,1295 FM 2497,,Diboll,TX,75941,United States
Conklin's Corner,670 Tyrone Pike,,Philipsburg,PA,16866,United States
The Consignment Connection,,,Sherman,TX,,United States
Consignment Mall of Poplar Bluff,1901 Sunset Dr.,,Poplar Bluff,MO,63901,United States
Contemporary Finds,1356 Jeffco Blvd.,,Arnold,MO,63010,United States
Cookstown Antique Market,5108 County Road 27,,Cookstown,ON,L0L 1L0,Canada
Cool Junk,113 N. Cleburne St.,,Granbury,TX,76048,United States
The Coop Antiques,97 Geneva Dr.,,Oviedo,FL,32765,United States
Co-op in the Cove Guns Plus LLC,"169 State Road, Route 11/15",,Duncannon,PA,17020,United States
Cooper's Variety Mall,135 West Main Street,,Morristown,TN,37813,United States
Cooper's Vintage Village,305 East Bodenhamer St.,,Kerniersville,NC,27284,United States
Copper Penny's Emporium,211 Main Street,,Destin,FL,32541,United States
Copperwood Co.,96 E. Iron Belt Rd.,,Cartersville,GA,20120,United States
Copperwood on Main,14 West Main St.,,Cartersville,GA,30120,United States
Cordelia Jane's Treasured Past,201 East Pine St.,,Exeter,CA,93221,United States
Cordelia Junction Antiques,4560 Central Way,,Fairfield,CA,,United States
Cortez Street Emporium,,,Prescott,AZ,,United States
The Cottage,3921 N. College Ave.,,Bethany,OK,73008,United States
The Cottage at Quentin,75 W. Main St.,,Lebanon,PA,,United States
Cottage Blue,2499 84th St. SW,,Byron Center,MI,49315,United States
The Cottage Studio,75 W. Main St.,,Quentin,PA,,United States
Cotton Country Antique Mall,3098 Huntsville Hwy.,,Fayetteville,TN,37334,United States
Cottonwood Cottage,305 South Salem Street,,Apex,NC,27502,United States
Cottonwood Junction,141 N. Main St.,,Pocotello,ID,83204,United States
Country Bits,700 Wheeling Ave.,,Cambridge,OH,43725,United States
Country Bumpkins Flea Market,106 Red Robin Ln,,Poplar Bluff,MO,,United States
Country Pickins' Flea Market,103 West Jefferson St.,,Doniphan,MO,63935,United States
Country Pickins' Flea Market,15 Hals Plaza Drive,,Piedmont,MO,63957,United States
Country Porch Antiques by Oat Valley Vintage,13201 South Hwy. 101,,Hopland,CA,95449,United States
Country Rose II Antiques and Accents,,,Clovis,CA,,United States
County Line Country Mercantile,5548 Seminole Trail,,Barboursville,VA,22923,United States
Court Street Antiques,168 Court Street,,Watertown,NY,13601,United States
Cowboys,100 Emory Lane,,Kingsport,TN,37660,United States
Cowgirls and Indians,161 E. Cascade Ave.,,Sisters,OR,97759,United States
The Cozy Corner Market,4405 E. Hwy 20,,Collinsville,OK,74021,United States
The Cozy Nook,17 E. Main St.,,Hardy,AR,72542,United States
Crafter's Emporium & Book Exchange,3901 Hixson Pike,#149,Chattanooga,TN,37415,United States
Crafting Lovely,104 East Main Street,,Stockbridge,MI,49285,United States
Craftique Marketplace,3044 Shepherd of the Hills Expressway,#203,Branson,MO,65616,United States
The Crafty Cottage,831 Meeting Street,,West Columbia,SC,29169,United States
The Cranberry Merchant,417 West Will Rogers Blvd.,,Claremore,OK,74019,United States
Crazy Daisy Antiques & Collectibles,6511 Slater Rd.,Suite 105,Chattanooga,TN,37412,United States
Crazy Vintage Lady,,,Layton,UT,,United States
Creamery Antique Mall,4072 Eastside Hwy,,Stevensville,MT,59870,United States
Creekside Antiques,119 Creekside Lane,,Hollister,MO,,United States
Creekside Antiques - Vendors,125 St. James Street,,Hollister,MO,65672,United States
Crossroads Antiques and Consignments ,,,Home,PA,,United States
Crossroads Vendor Market,8804 Coroma St.,Suite 140,Olive Branch,MS,38654,United States
Crown Antique Mall,545 East 110th Ave.,,Crown Point,IN,46307,United States
Crown Antique Mall II,595 East 110th Ave.,,Crown Point,IN,46307,United States
Crown Tower Emporium,2774 N Germantown Pkwy,,Memphis,TN,38133,United States
Crystal Visions,5426 Asheville Highway,,Naples,NC,28760,United States
Curate: A Local Mercantile,8262 S. University,,Centennial,CO,81022,United States
Cypress Creek,11080 Crossett Rd.,,Bastrop,LA,71220,United States
Daily Grace Effect,3320 E. Fifth St.,,Troup,TX,,United States
Daisy's Designer Alley,3127 Battleground Ave.,,Greensboro,NC,27408,United States
Dalton Antique Market,330 South Hamilton St ,,Dalton,GA,30720,United States
Dandridge Mercantile,1214 Gay Street,,Dandridge,TN,37725,United States
Daphne Antique Galleria,1699 US Hwy 98,,Daphne,AL,36526,United States
Dawn & Birch Co LLC,1570 E. Battlefield,Suite E,Springfield,MO,65804,United States
DD's Super Flea,,,West Plains,MO,,United States
Dealing on the Railroad,108 Railroad Street,,Thomson,GA,30824,United States
Decades of Home Furnishings,,,Grand Rapids,MI,49548,United States
Decor Depot,305 Everett Mall Way SE,Suite 210,Everett,WA,98208,United States
Decorative Dreams of NY,4155 St. Route 31,,Clay,NY,13041,United States
Decorator Warehouse,,,Lexington,KY,40502,United States
Deja Vu Antiques at the Loading Dock,,,Orcutt,CA,,United States
Delta Creations Gifts & Collectibles,30 East 2nd Street,,Clarksdale,MS,38614,United States
Depot 40  -  Dixie  Co.,40 Depot St.,,Dillsboro,NC,28725,United States
Diamonds and Rust,1761 Route 112,,Medford,NY,11763,United States
"Diggers Antique Mall, LLC",1811 N. Pine Ave.,,Ocala,FL,34475,United States
Dinah's Coastal Furniture & Boutique,22200 Panama City Beach Pkwy.,,Panama City Beach,FL,32413,United States
Dirty Janes Bowral,13-15 Banyette St.,,Bowral,NSW,2576,Australia
Dirty Janes Canberra,,,Fyshwick,ACT,,Australia
Dixie Chatham (Den of Antiquities),,,Smithville,TX,78957,United States
Dixie Mae,630 W. Main St.,,Sylva,NC,28779,United States
DJ's 2nd Hand & Estate Sales,6119 Old Redwood Highway ,B1,Santa Rosa,CA,95403,United States
Do Drop In Flea Market,316 W. Center St.,,Beebe,AR,72012,United States
Dogwood Vintiques,1415 Missouri Blvd.,,Jefferson City,MO,65109,United States
Doilies 2 Doorknobs,8713 271st St. NW,,Stanwood,WA,98292,United States
Double B Vintage Market,420 County Rd. 409,,Jonesboro,AR,72404,United States
Dovetail Antiques & Collectibles,5609 2nd St.,,Katy,TX,77493,United States
Downtown Alley,112 Market St.,,Bridgeville,DE,19933,United States
Downtown Dreamers,202 West Beloit Street,,Orfordville,WI,,United States
The Downtowner Marketplace,714 Central Avenue,,Hot Springs,AR,71901,United States
Dragonfly Antiques,21115 NW Service Rd.,,Warrenton,MO,63383,United States
Druid City Vintage Market,,,Tuscaloosa,AL,,United States
Duck Crossing,515 E. Elk Ave.,,Elizabethton,TN,37643,United States
Dugout Sports Cards,1408 I-70 Dr. SW Ste 102,,Columbia,MO,65203,United States
Duluth Antique Marketplace,5705 Grand Ave.,,Duluth,MN,55807,United States
Durant Mercantile,124 N. 2nd Ave.,,Durant,OK,74701,United States
The Dusty Attic,111 West Main Street,,Farmington,NM,87401,United States
Dwellings on the Boulevard,9120 Seminole Blvd.,,Seminole,FL,33772,United States
E. N. Miller Antique Mall,615 E. Railroad Ave.,,Verona,PA,15147,United States
"Eagle Street Market, LLC",422 Eagle Street,,South Haven,MI,49090,United States
Early Owego Antique Center,43-45 Lake Street,,Owego,NY,13827,United States
East Tenn Glassware & Antiques,1213 Snapps Ferry Rd.,,Greeneville,TN,37745,United States
Eastown Antiques,1515 Lake Dr. SE,,Grand Rapids,MI,49506,United States
Echoes From The Past,,,Wichita Falls,TX,,United States
The Eclectic Chic,21 Seneca Ave.,,Oneida,NY,13163,United States
Eclectic Curio LLC,5111 N. Glenwood St.,,Garden City,ID,83714,United States
The Eclectic Eye,16 Railroad Ave.,,Warwick,NY,10990,United States
ECLECTION Emporium,110 North Fourth Street,,Mebane,NC,27302,United States
Eclipse Artisan Boutique,203 Racine Dr.,,Wilmington,NC,28403,United States
Edith's Emporium,1914 McCaullie Ave.,,Chattanooga,TN,37404,United States
Edmonds Mercantile & Auction,529 Dayton St.,,Edmonds,WA,98020,United States
The Edwards Rusty Rooster,1301 North Main St.,,McAlester,OK,74501,United States
Edwardsville Flea Market,1506 Troy Rd.,,Edwardsville,IL,62025,United States
Elderberry Place,207 O'Fallon Plaza,,O'Fallon,MO,63366,United States
The Elephant Ear Gallery,672 Bultman Dr.,,Sumter,SC,29150,United States
Elizabeth's Grand Antique Company,,,Elizabeth,IL,,United States
Elk Rapids Antiques,1719 S. Garfield Ave.,,Elk Rapids,MI,,United States
Ella Bella Vintage Finds,,,Conway,WA,,United States
El-Marie's Antique and Art Marketplace,201 Sparkman Dr. NW,,Hartselle,AL,35640,United States
EMA International Sales & Auctions,,,Edmonds,WA,,United States
Empire Revival,167 Latrobe Tce,,Paddington,QLD,4064,Australia
The Emporium,3344 N. Liberty St.,,Canton,MS,39046,United States
The Emporium,319 Main St.,,Great Barrington,MA,1230,United States
The Emporium by Deja Vu,179 North Main Street,,Eureka Springs,AR,72632,United States
The Emporium by Empire Revival,101 George St,,Kalbar,QLD,4309,Australia
The EMPORIUM of the Shoals,,,Muscle Shoals,AL,,United States
Encore Antiques & Collectables,590 S. Fossil,,Russell,KS,67665,United States
Enjoy,155 1/2 C Harrison St.,PO Box 151,Shipshewana,IN,,United States
Era of Elegance,717 Mortimer St.,,Barry,IL,62312,United States
Estate Addicts,444 East Sixth Street,,Beaumont,CA,92223,United States
Estate Antiques & Collectibles,2514 Winfield Dunn Pkwy.,,Kodak,TN,37764,United States
Estate Sales Warehouse,3524 E. Mall Dr. SE,,Grand Rapids,MI,49546,United States
Estate Solvers,,,Evansville,IN,47711,United States
Evangelina's Emporium LLC,1214 N. Main St.,Suite D,Anderson,SC,29621,United States
Everybody's Antiques,436 South Bradley Avenue,,El Dorado,AR,71730,United States
Everything & The Kitchen Sink,601 Maine Street,,Quincy,IL,62301,United States
Exquisitely Antique,1475 280th Street,,Waubun,MN,56589,United States
"Extending Grace, LLC",18 W. Liberty St.,,Hubbard,OH,4425,United States
Eye of the Beholder,610 1/2 Oak Street,,Baraboo,WI,53913,United States
Fabulous Finds LLC,811 Oregon St.,,Oshkosh,WI,54902,United States
Fabulouz Findz,2413 Westwood Ave.,,Richmond,VA,23230,United States
False River Antique Mall,300-A Hospital Rd.,,New Roads,LA,70760,United States
Family and Friends Emporium,560 Hwy 367 N,,Judsonia,AR,72081,United States
Family Flea Market,,,Meridian,MS,,United States
Family Traditions,280 County Rd. 445,,Collinsville,AL,35961,United States
Family Treasures Antique Mall,406 N. Main St.,,Broken Arrow,OK,74012,United States
The Fancy Flea Antique Mall,2763 Hwy 17,,Shallotte,NC,28470,United States
Fancy Schmancy Vintage Boutique,3970 Park Avenue,,Hot Springs,AR,,United States
Farm & Fable,,,Huntsville,AL,,United States
The Farmer's Daughter,,,Gonzales,TX,,United States
The Farmhouse,24221-A Laytonsville Rd.,,Etchison,MD,20882,United States
Farmhouse Antiques,1236 Lakes Blvd.,,Lake Park,GA,31636,United States
Farmhouse Antiques,,,Ravenel,SC,,United States
"Farmhouse Antiques, Collectables, Styling, Tanning",,,Greensburg,IN,,United States
Farmhouse Vintage Treasures,208 E. Main Street,,Benson,NC,27504,United States
Faux Real Design Company,160 Louisiana St.,,Liberty,TX,77575,United States
Feather My Nest,4137 Pontoon Rd.,,Pontoon Beach,IL,62040,United States
Fensty's Flea Market,20 North 3rd St.,,Bally,PA,19503,United States
Fiddlesticks Gifts and Collectibles,9703 County Road 8890,,West Plains,MO,65775,United States
"Fiddlestiks, Inc.",3733 W. Elm Street,,McHenry,IL,,United States
Fifth Avenue Marketplace,324 5th Avenue NW ,,Attalla,AL,35954,United States
Finders Keepers,,,Brownstown,IN,,United States
Finders Keepers,1205 South 6th St.,,Kingsville,TX,78363,United States
Finders Keepers,4784 Centerline Dr.,,Knoxville,TN,37917,United States
Finders Keepers Antiques & Collectables,"74 South ""C"" St.",,Virginia City,NV,89440,United States
Finders Keepers Country Market,11169 Louisville St.,,Louisville,OH,44641,United States
Finders Keepers Flea Market,1029 Highway 62 East,#1,Mountain Home,AR,72653,United States
Finders Keepers Flea Market & Antique Mall,6096 Dale Drive,,Marion,MS,39342,United States
Finders Keepers of Excelsior Springs,1220 North Jesse James Rd.,,Excelsior Springs,MO,64024,United States
Finders Keepers Thrift Central,2209 N. Central Ave.,,Knoxville,TN,37917,United States
Finders Keepers Village,789 Hebron Rd.,,Heath,OH,43056,United States
Firehouse Antiques,10095 South Memorial Parkway,,Huntsville,AL,35803,United States
Firehouse Antiques Station #2,1520 6th Avenue SE,,Decatur,AL,35601,United States
Fish Creek Mercantile,3955 State Route 69,,Taberg,NY,13471,United States
"The Five & Dime Antiques, Collectibles and More",49 Main St.,,Benton,KY,42025,United States
Five O'l Heifers,306 Cove Terrace,,Copperas Cove,TX,76522,United States
Five Points Antiques,1034 Temple Ave. North,,Fayette,AL,,United States
Flamingo Bay,1470 US 17,,Little River,SC,29566,United States
Flamingo Bay,720 Hwy 17 South,,North Myrtle Beach,SC,29582,United States
Flashback Antiques & More,11313 Broadway,Suite D,Crown Point,IN,46307,United States
The Flea Market,1694 Berryville Pike,,Winchester,VA,22603,United States
Fleabitten Flea Market,1212 S. Second St.,Suite 7A,Cabot,AR,72023,United States
Fletcher Jones Market,,,Warrnambool,VIC,,Australia
Flip Flops on Palafox,,,Pensacola,FL,,United States
Flip Your Closet,,,Nags Head,NC,,United States
Flippin' Unique Antiques,12 Harold Dr.,,Fulton,NY,13069,United States
Florence Consignment Corner,118 W. Main St.,,Florence,CO,81226,United States
Flucy Lucy Antique Market,2717 Clinton Ave.,,Huntsville,AL,35805,United States
Foothills Mercantile,8124 State Route 12,,Barneveld,NY,13304,United States
Forest Avenue Antiques,2025 Forest Ave.,,Great Bend,KS,67530,United States
Forest City Marketplace,900 North Main Street,,Forest City,PA,18421,United States
Forget Me Not Flea Market,1702 S. Main St.,,Joplin,MO,64804,United States
Forsyth Antiques & More,816 Highway 41 South,,Forsyth,GA,31029,United States
Found In Ithaca,227 Cherry St,,Ithaca,NY,14850,United States
The Fox Antique Mall,100 East Harrell Street,,Cleburne,TX,76031,United States
Fox River Antique Mall,1074 S Van Dyke Rd,,Appleton,WI,54914,United States
Freakin' Antiquin',2259 East Bennett ,,Springfield,MO,65804,United States
"Frogmopolitan, LLC",323 W. Chatham St.,,Cary,NC,27511,United States
The Front Porch - Beebe,605 W. DeWitt Henry Dr.,Suite D,Beebe,AR,72012,United States
The Front Porch - Mena,816 DeQueen St.,,Mena,AR,71953,United States
The Front Porch,381 Hwy 149,,Clarksville,TN,37040,United States
The Front Porch,,,Muskegon,MI,,United States
Front Porch Vendor Boutique,9094 Goodman Road,,Olive Branch,MS,38654,United States
Front Street Farmhouse,107 Front Street,,Henderson,TN,38340,United States
Front Street Home Store,18827 Front Street NE,Unit 4,Poulsbo,WA,,United States
Full Circle Village,1909 N. St. Mary's,,Beeville,TX,78102,United States
The Funhouse,4545 Transit Rd.,Suite 328,Williamsville,NY,14221,United States
The Funky Flamingo Marketplace,807 A Robb St.,,Summit,MS,39666,United States
Funky Monkey of the Shoals,1660 Wilson Dam Rd.,,Muscle Shoals,AL,35661,United States
Funky Munky Flea Market,615 Walnut St.,,Greenville,OH,45331,United States
Funky Pumpkin,203 Live Oak Avenue W,,DeFuniak Springs,FL,32435,United States
Furnichicks,61 Endicott St.,,Norwood,MA,2062,United States
The Fuzzy Rooster,209 W Jefferson St,,Waxahachie,TX,,United States
Galena Antique Mall,,,Galena,IL,,United States
Gallerie 143,513 14th St.,,Columbus,GA,31901,United States
The Garage on 25,3461 Hendersonville Rd.,,Fletcher,NC,28732,United States
Garden House Vintage Market LLC,6187 West D. Ave.,,Kalamazoo,MI,49009,United States
Gardenias Marketplace,123 N. Gordon St.,,Ashburn,GA,31714,United States
Georgetown Antiques and Artisans,719 South Main St.,,Georgetown,TX,78626,United States
German Village Mercantile,,,Columbus,OH,,United States
Getty Street Marketplace,120 N. Getty St.,,Uvalde,TX,78801,United States
GG's Antiques and Collectibles,216 N. Polk St.,,Jefferson,TX,75657,United States
Gibson Market,1391 East Highland Ave.,Suite 101,Selma,AL,36703,United States
Gifted And More,2643 Pelham Parkway,,Pelham,AL,35124,United States
The Gingham Daisy,102 E. Front St.,,Burlington,NC,27215,United States
Gizmo's Galleria,1012 E. Main St.,,Brownsburg,IN,46112,United States
Gizmo's Galleria,1547 South Western Avenue,,Marion,IN,,United States
Glenwood Furniture Flea Market,200 Hwy 70 E,Suite 9,Glenwood,AR,71943,United States
Golden Antiques & Treasures,341 Ram Loop,,Stokesdale,NC,27357,United States
Golden Rose Flea Market,114 West Main St.,,Anderson,MO,64831,United States
Golightly's Antiques,5505 Davis Boulevard,,N. Richland Hills,TX,76180,United States
Good As New,5499 Route 62,,Conewango Valley,NY,14726,United States
Good Ole Days Antiques and More,24260 State Road 37 North,,Noblesville,IN,46060,United States
Goodlettsville Antique Mall,213 North Main Street,,Goodlettsville,TN,37072,United States
Grammy's Timeless Treasures,621 St. Joseph St.,,Gonzales,TX,78629,United States
Grand Inspirations Home Furnishings and Decor,866 W. Grand Ave.,,Grover Beach,CA,93433,United States
Grand Leader Mercantile,1502 Hewitt Ave.,,Everett,WA,98201,United States
Granma's Attic,1901 Russelville Rd.,,Bowling Green ,KY,42101,United States
Granny's Korner,201 Market Street,,Tomball,TX,77375,United States
Gravy,17 West Main St.,,Brevard,NC,28712,United States
Gray Day Relics,18612 Main Street,,Conway,WA,98238,United States
Great American Antiques,,,Paso Robles,CA,,United States
Great Finds Resale,5169 Northland Dr. NE,,Grand Rapids,MI,49525,United States
The Green Gardinia,6511 Slater Road,Suite 101B,East Ridge,TN,37412,United States
The Green Olde Deal Antique Mall,1442 Winfield Dunn Pkwy.,,Sevierville,TN,37876,United States
Green Top Antiques & Collectibles,433 East Main Street,,Glendale,KY,42740,United States
The Greensboro Depot,2350 Jones St.,,Greensboro,AL,36744,United States
Greenwood Treasure Trove,,,Greenwood,DE,,United States
Greystone Antiques & Marketplace,5475 Highway 280 E.,,Birmingham,AL,35242,United States
Griggs Cool Stuff,1616 W. I65 Service Rd S.,,Mobile,AL,36693,United States
Grit & Grace Market,44 Church St. SE,,Cleveland,TN,37311,United States
The Grove,221 East Pine St.,,Exeter,CA,93221,United States
GuerreroÂ’s Treasures & Collectibles,6062 Magonolia Ave.,,Riverside,CA,92506,United States
Gums Mall of Antiques and Collectibles,211330 Norwalk Blvd.,,Hawaiian Gardens,CA,90716,United States
Gypsy Caravan,607 Country Club Rd.,,Argyle,TX,76226,United States
Gypsybeach Treasured Kreations,1107 Beck ave.,,Panama City,FL,32401,United States
Hallie's Place,27 2nd Ave. SE,,Moultrie,GA,31768,United States
Hamilot Mall,201 S. Main,,Quitman,TX,,United States
Hampden Street Antique Market,8964 East Hampden Avenue,,Denver,CO,80231,United States
Hansel & Gretel Antique Shop,436 Governor Wentworth Hwy,,Melvin Village,NH,3850,United States
The Hap-n-Stance Hut,3511 East Ocean View Avenue,,Norfolk,VA,23518,United States
Happenstance Goods,23 W. Washington St.,,Oswego,IL,65043,United States
Harbour House Shoppes,2605 Old Charlotte Hwy,,Monroe,NC,28110,United States
Harrison House Market,1717 East Cherokee,Suite 103,Springfield,MO,65804,United States
Hatties House & Vintage Market,200 S. Main St.,,Muskogee,OK,74403,United States
Hawley Antique Exchange,209 Belmont Avenue,,Hawley,PA,18428,United States
Healdsburg Upscale Resale,44 Mill Street,44A,Healdsburg,CA,95448,United States
Heart and Soul Vintage Home,502 Ventura St.,,Fillmore,CA,93015,United States
Heart of Dixie Antique Mall & Shoppes,19 S. First Ave.,,McRae,GA,31055,United States
Heart of Home,,,Johnstown,OH,,United States
Heart of Route 66 Vintage Market,105 East Dewey Ave.,,Sapulpa,OK,74066,United States
The Hearth & Home Country Store,28 Cross St.,,Island Pond,VT,5846,United States
Heirloom Antiques and Fine Collectibles,121 Road 308,,Sweetwater,TN,37874,United States
Heirloom Estate Sales,,,Grand Junction,CO,,United States
Heirloom Market Co.,8861 Hwy 54,,Sharpsburg,GA,30277,United States
Heirlooms Antiques Mall,1947 S. Havana St.,,Aurora,CO,80014,United States
"Heritage Antiques and Interiors, LLC",13720 Midway Rd.,Suite 100,Dallas,TX,75244,United States
Heritage USA,253 E. Hood Ave.,,Sisters,OR,97759,United States
Hermann's Attic Antique Mall,220 E. First St.,,Hermann,MO,65941,United States
Heyday Antiques and Vintage,1747 Allied St,,Charlottesville,VA,22903,United States
Hickory Pick'n,9560 Hwy 503,,Hickory,MS,39332,United States
Hickory Street Emporium,222 East Hickory Street,,Paris,TX,75460,United States
Hidden Treasures,,,Portland,TN,,United States
Hidden Treasures,26 US Route 1,,York,ME,3909,United States
Hidden Treasures Flea Market,2010 Old Marion Rd,,Meridian,MS,39301,United States
Hide & Seek Treasures,,,Amarillo,TX,,United States
The High Cotton Marketplace,911 Robinson Street,,Waynesboro,MS,39367,United States
Highway Pickers,1354 Hwy 278 West,,Cullman,AL,35057,United States
Hill City Collectibles,6015 Fort Avenue,Suite 19,Lynchburg,VA,24502,United States
Historic Handley Antiques and Uniques,,,Forth Worth,TX,,United States
Hodge Podge Antiques,,,Monroe,GA,,United States
Hodge Podge on Main,201 West Main St.,,Chilhowie,VA,24319,United States
Hoffman House Antique Mall,523 E. Main St.,,Molalla,OR,97038,United States
Hollie's Place,61 Endicott St.,Bldg. 25,Norwood,MA,2062,United States
Home at the Cooperage,1 South Street,,Townsend,MA,1469,United States
Home by Kristen,71 E. Butler Avenue,,Ambler,PA,19002,United States
Home Feathers,,,Ennis,TX,,United States
Home Inspirations,1502 Hewitt Ave.,,Snohomish,WA,98201,United States
Home Redecor,575 State Hwy 160,,Warrior,AL,35180,United States
Homestead Antiques,6530 Wadsworth Blvd.,Suite 130,Arvada,CO,80003,United States
The Homestead Shoppe,401 Richmond St.,,Church Hill,TN,37642,United States
Homesteaders Trading Post,1810 25th St.,,Columbus,IN,47201,United States
Homewood Antiques & marketplace,930 Oxmoor Road,,Homewood,AL,35209,United States
Hoover Antique Gallery,3411 Old Columbiana Rd,,Birmingham,AL,35226,United States
Hope Chest Emporium,2200 Main St.,,Morro Bay,CA,93442,United States
The Hornet's Nest,106 North Victoria Street,,Louise,TX,77455,United States
Hotch-Potch,,,Fort Walton Beach,FL,,United States
House of Milk and Honey,807 William St.,,Fredericksburg,VA,22401,United States
House of Wilhem Co-op,17960 Pearle Rd.,,Strongsville,OH,44136,United States
House to Home,920 McCullen Booth Rd.,,Clearwater,FL,33759,United States
Huckabella Boutique & Marketplace,101 S. 3rd St.,,Ozark,MO,65721,United States
Hudson's Antique Alley,715 W. Main St.,,Ada,OK,74820,United States
Hunt & Gather Antiques and Vintage,1350A Jadwin Ave.,,Richland,WA,99352,United States
Hunters and Gatherers,40 West Main St.,,Brevard,NC,28712,United States
Hwy 107 Flea Market,14 912 Hwy 107,,Jacksonville,AR,72076,United States
HWY. 41 Antiques,520 Atascadero Rd,,Morro Bay,CA,,United States
Hyde Park Antiques Center,4192 Albany Post Rd,,Hyde Park,NY,12538,United States
Indian Trail Antiques,,,Newcastle,ME,,United States
The Insyde Outsyde Shop,5006 Dayton Blvd.,,Chattanooga,TN,37415,United States
Interiors Marketplace of the Carolinas,2129 Old Spartanburg Rd.,,Greer,SC,29650,United States
The Iron Dog Salvage & Antiques,14 E. Main St.,,Tipp City,OH,45371,United States
Isaac's Antiques LLC,132 East Main Street,,Mount Horeb,WI,53572,United States
Island Vintage Market,2136 Sadler Square,,Fernandina Beach,FL,32034,United States
It Is What It Is,190 Carlinville Plaza,,Carlinville,IL,62626,United States
Itchy's Flea Market,1907 N. Providence Rd.,,Columbia,MO,65202,United States
It's All in the Past,410 Lafayette St.,PO Box 1046,Livingston,AL,35470,United States
The Ivy on Pine,215 E. Pine St.,,Fitzgerald,GA,31750,United States
The Ivy on Wayne,215 E. Pine St.,Office: 316E. Pine.,Fitzgerald,GA,31750,United States
J & J Originals and Gifts,3206 S. 27th St.,,Abilene,TX,79605,United States
J Street Vintage,615 Jefferson St.,,Jefferson City,MO,65101,United States
J. W. Riley's Emporium,107 W. Main St.,,Greenfield,IN,46140,United States
Jacks Floral 2,321 Church St.,,Wise,VA,24293,United States
Jackson Square Mall,112 East Burlington Ave.,,La Grange,IL,60525,United States
"Janted, Inc.",,,Litchfield,IL,,United States
Jan-Tiques,113 NW Main St.,,Mahnomen,MN,56557,United States
Javelina Vintage Market,614 E. Pearl St.,,Granbury,TX,76048,United States
Jay Antique Market,3887 Scotts Plaza,,Jay,FL,,United States
Jeff's Antique Mall,501 S.Dixie Fwy,,New Smyrna Beach,FL,32168,United States
The Jenny Wren,96 West Jackson Street,,Millersburg,OH,44664,United States
Jeremiah's Antiques & Collectibles Shoppe,26 Front St.,,Putnam,CT,6260,United States
Jessica's Antiques,101 Saint Joseph Ave.,,Brewton,AL,36426,United States
Jewel & Lou,96 E. Iron Belt Rd.,,Cartersville,GA,20120,United States
JJ's Vendor Mall,200 Linden Square Dr.,Suite 9-14,Bristol,VA,24202,United States
JoJo's Attic,230 W. Main St.,,Wytheville,VA,24382,United States
Jones Marketplace,1109 State Route 307,,Springbrook Township,PA,18444,United States
Jonesborough Antiques & Artisans,115 E. Main St.,,Jonesborough,TN,37659,United States
Josephine's,1961 Bay Street,,Port Orchard,WA,98366,United States
Journal on the Green Antiques & Arts LLC,117 Greenway St.,,Thomson,GA,30824,United States
Junk Appeal,1201 North Woods Chapel Road,,Blue Springs,MO,64015,United States
The Junk Drawer,3524 E. Broadway,,Pearland,TX,77581,United States
Junk Happens,,,Statham,GA,,United States
Junk in the Trunk on 6th Street,114 W 6th Streent,Suite B,Waynesboro,GA,30830,United States
Junk Pink,121 East Buchanan,,Prairie Grove,AR,,United States
Junkin' Shenanigans,736 Beaver Dam Ave.,,Damascus,VA,24236,United States
Junktiques,115 East Madison Ave.,,Athens,TN,37303,United States
Junque Stops Here,117 S. Main Street,,Cuba City,WI,53807,United States
The Junque Yard,513 14th St.,,Columbus,GA,31901,United States
Just Piddlin,106 South Tennessee St.,,McKinney,TX,75069,United States
Kalama Vintage Warehouse,134 N. First St.,,Kalama,WA,98625,United States
Kaleidoscope Inspiration,115 N. 5th St.,,Canon City,CO,81212,United States
Kaleidoscopes,211A Main St.,,Destin,FL,32541,United States
Kalispell Antiques Market,48 Main St.,,Kalispell,MT,59901,United States
Karey's Vintage Store,6655 Stutz Drive,,North Lima,OH,44406,United States
Kat's Place,855 57th St.,Suite D,Sacramento,CA,95838,United States
Katydid's,65181 M-43,,Bangor,MI,49013,United States
Katydidz Craft & Artisan Market,13128 Midlothian Turnpike,,Midlothian,VA,23113,United States
The Katz Meow,4012 34th Street,,Lubbock,TX,79410,United States
The Katz Meow Quality Antiques & Vintage Collectibles,1519 Park St.,,Alameda,CA,94501,United States
Keepin Up With The Joneses,517 Northside Drive,,Newton,MS,39345,United States
Kelly's Resale & Collectibles,1692 Gravois Rd.,,High Ridge,MO,63949,United States
Kev's Barnyard Flea Market,185 West State Street,,Granby,MA,1033,United States
Key to the Past Antique Center LLC,,,Clinton,CT,,United States
Key to the Past Antique Center LLC,37 Frontage Rd.,,East Haven,CT,6512,United States
Keystone Vintage Market,122 Pleasant Street,,Easthampton,MA,1027,United States
Kiehl Avenue Flea Market,902 E Kiehl Ave,,Sherwood,AR,72120,United States
Kimberly's Stitchery and Mercantile,6193 Highway Blvd. Ste. 201,,Katy,TX,,United States
"KINCL House of Antiques, LLC",200 West Second St.,,Taylor,TX,76574,United States
King Richard's Antique Center,12301 Whittier Blvd.,,Whittier,CA,90602,United States
Knightsbridge Antique Mall,42305 W. 7 Mile Rd.,,Northville,MI,,United States
Knot on Main Street,2410 Bayshore Blvd.,,Dunedin,FL,34698,United States
Kollab & Co.,,,Ozark,MO,,United States
The Kountry Kottage,113 S. Canyon St.,,Carlsbad,NM,88220,United States
Kraft St. Antiques,120 Kraft St.,,Clarksville,TN,37043,United States
Kruger Brent,1100 Travis St.,,Wichita Falls,TX,76301,United States
KTX Home LLC,,,Katy,TX,77493,United States
La Bella Fonte Co,321 W. Monroe St.,,Grenada,MS,38901,United States
Labadie Station,128 Front Street,,Labadie,MO,63055,United States
Ladders Clothing & Company,8723 271st Street NW,,Stanwood,WA,98292,United States
Lake Milieu LLC,4805 Osage Beach Pkwy.,,Osage Beach,MO,65065,United States
Lake Oconee Antique Mall,871 Harmony Rd.,,Eatonton,GA,31024,United States
"Lake Wappapello Treasure Chest, Antiques & Etc.",P O Box 308,,Puxico,MO,63960,United States
Lamplighter Mercantile & Trading Co.,521 E Main St.,,Visalia,CA,93292,United States
Lancaster County Antique Center,2255 North Reading Rd.,,Denver,PA,17517,United States
Langley Antiques,20221 Farsey Hwy,,Langley,BC,V3A4E7,Canada
Lantern 44,487 Hartley Rd.,,Hartly,DE,19953,United States
LaSalle Shoppes,2223 LaSalle Avenue,,Waco,TX,76706,United States
Latta Greenhouse & Floral Shop,14290 CR1560,,Ada,OK,74820,United States
Laurie McRae Estates,2156 Central Ave.,,Augusta,GA,30904,United States
Lawrenceburg Mercantile,39 Public Square,,Lawrenceburg,TN,38464,United States
Lazy Daisy Seneca,62101 East 174 Road,,Wyandotte,MO,,United States
Lazy Dog Antiques & Collectibles,1340 Rudakof Circle,,Anchorage,AK,99508,United States
The Lazy Dog Flea Market,6017 Hwy 62 West,,Gassville,AR,72635,United States
LD2 Market Shoppes,215 N. Church St.,,Jackson,TN,38301,United States
Leaping Leopard Antiques,2145 S. 4th St.,,Lafayette,IN,47905,United States
Legacy Home Decor,,,Pearland,TX,,United States
Leola's Cottage,327 West Drive,,Whitehouse,TN,37188,United States
Leroy's Antiques & Collectibles,501 Main St.,,Belpre,OH,45714,United States
Leyna's Treasures,146 S. Beach St.,,Daytona,FL,32114,United States
Liberty Street Antiques,1239 Liberty Street,,Franklin,PA,16323,United States
The Lincoln Highway Hub,1404 Lincoln Hwy.,,North Versailles,PA,15137,United States
Lincoln Way Collectibles,,,McConnellsburg,PA,17228,United States
Little Bit of This and That Flea Market,1402 West Dewitt Henry Drive,,Beebe,AR,72012,United States
Little Bluebird Vintage Boutique,2004 W. Evangel,,Ozark,MO,65721,United States
Little Bungalow,2511 Thomas Dr.,,Panama City Beach,FL,32407,United States
Little Falls Antique Center,25 W. Mill St.,,Little Falls,NY,13365,United States
The Little Fox Marketplace,101 Shelbyville St.,,Center,TX,75935,United States
The Little Mustard Seed,437 Harrison Ave,,Panama City,FL,32401,United States
Little Towne Collectibles Antiques and Gifts,131 S. Central Ave.,,Landis,NC,28088,United States
Local Color,72 S. Broad St.,,Brevard,NC,28712,United States
The Locals Craft and Flea Market,128 East Buchanan St.,,Prairie Grove,AR,72753,United States
The Lockhart Shoppes on Main,101 South Main St.,,Lockhart,TX,78644,United States
Locust Grove Emporium,3847 Hwy 42,,Locust Grove,GA,30248,United States
The Loft,,,Franklin,TN,,United States
The Loft of Byhalia,2443 Church Street,,Byhalia,MS,38611,United States
The Loft Shops,10912 County Seat Hwy,,Laurel,DE,19956,United States
Logan Village Mall,133 E. 53rd Street,,Noblesville,IN,46011,United States
London Vendors Market,845B South Main Street,,London,KY,40741,United States
Long Ago Antique Mall,110 N. Main St.,,Hutchinson,KS,67501,United States
Looking Glass,848 North 4th St.,,Coeur d'Alene,ID,83814,United States
Lookout Mercantile,21780 Highway 127,,Rogers,AR,72756,United States
Lost & Found Mercantile,85 Main St.,,Ware,MA,1082,United States
Lost & Found Mercantile 7,47 Main Street,,Ware,MA,1082,United States
Lost & Found Treasures of Old and New,445 Century Ave SW,,Grand Rapids,MI,49503,United States
Lost and Found Vintiques,,,Alvin,TX,,United States
Lost Treasures,104 W. Central,,Ulysses,KS,67880,United States
Lost Treasures,1755 S. US Hwy 63,,West Plains,MO,65775,United States
Lotza Stuff,26554 US Hwy. 70 East,,Ruidoso Downs,NM,88346,United States
Lou Lou's,160 Main St.,Suite 128,Hoover,AL,35244,United States
Louisburg Market Street,1220 W. Amity,,Louisburg,KS,66053,United States
Lovely Chaos,806 N 4th St.,,Coeur d' Alene,ID,83814,United States
Lower Lodge Antiques,712 Franklin St.,,Natchez,MS,39120,United States
Lucky Charm Antique Mall,6012 Broadway,`,Galveston,TX,77551,United States
Lucky Dog Outfitters,,,Albany,GA,,United States
Luna's Farmhouse,101 East Meeting Street,,Dandridge,TN,37725,United States
M. Tannery & Sons,112 Ram Pat Alley,,Seneca,SC,29678,United States
M29 Outpost LLC,558 Zbroadway St.,,Marine City,MI,48039,United States
MacMahon's Delphi Antiques,1005 North Gravel Pike,,Schwenksville,PA,19473,United States
Mad River Tackle,1264 Giuntoli Lane,Suite A,Arcata,CA,95521,United States
Madison Inn Antiques,7417 State Route 20,,Madison,NY,13402,United States
Madison Mercantile,8540 Hwy 72 W,,Madison,AL,35758,United States
Madison's of Benton,,,Benton,AR,,United States
Magnolia Antiques & Home Interiors,6468 Fair Oaks Blvd.,,Carmichael,CA,,United States
Magnolia's Market and Boutique,,,Ozark,MO,,United States
Magpie's Marketplace,425 S Main St,,Canyonville,OR,97417,United States
The Main Line,134 N. Main St.,,Graham,NC,27253,United States
Main St. Antique Mall,215 N. Main St.,,Moscow,ID,83843,United States
Main St. Mercantile,514 E. Main St.,,Visalia,CA,93292,United States
Main Street Antiques,178 N. Ocean Ave.,,Cayucos,CA,93442,United States
Main Street Antiques,208 East Main Street,,Turlock,CA,95380,United States
Main Street Flea Market,660 W. Main St.,,Jacksonville,AR,72076,United States
Main Street Market,613 Main Street,,Woodville,MS,39669,United States
The Main Street Market,212 W Main St,,Ada,OK,,United States
Main Street Market at the Boneyard,215 West Main Street,,Swainsboro,GA,30401,United States
Main Street Market Shops,15 W. Main St.,,Hendersonville,NC,28712,United States
Main Street Marketplace,515 N. St. Joseph Street,,Gonzales,TX,78629,United States
Main Street Mercantile,45 Main St,,Bradford,PA,16701,United States
Main Street Monograms,,,Hoover,AL,,United States
Main Street Vintage,830 N. Main St.,,Norwood,NC,28128,United States
Mainly Antiques,1805 E. Main St.,,Easley,SC,29640,United States
Makers Market,8501 W. Bowles Ave.,,Littleton,CO,80123,United States
Makers Market on Main,149 Alabama Street,,Alexander City,AL,35010,United States
The Mall of Douglas,216 Peterson Ave. S.,,Douglas,GA,31533,United States
The Mall on Main,831 Main St.,Box 564,Pomeroy,WA,99347,United States
Mama Says Emporium,315 Garrison Ave.,,Fort Smith,AR,72901,United States
Mamie's Attic,20000 Highway 11 ,Unit 2,Woodstock,AL,35188,United States
Marilyn's Madness,2046 Lexington Rd.,,Nicholasville,KY,40356,United States
Marine Supply Hardware,,,Anacortes,WA,98221,United States
Marion Antique Mall,503 N. Madison St.,,Marion,IL,62959,United States
The Market,2628 S. Glenstone Ave.,,Springfield,MO,65804,United States
Market 5555,101 N. Broadway Ave.,,Red Lodge,MT,59068,United States
The Market Place,,,Albany,GA,,United States
The Market Place,,,Thomasville,GA,,United States
The Marketplace,117 North Cortez Street,,Prescott,AZ,86301,United States
Marketplace 120,562 Wylie Rd.,,Marietta,GA,30067,United States
Marketplace 3301,3301 1st Ave N,,Billings,MT,59041,United States
Marketplace at Rivertown,114 S. Woodland Blvd.,,Deland,FL,32720,United States
The Marketplace Mall LLC.,15864 Nauvoo Rd.,,Middlefield,OH,44062,United States
Marketplace on Chestnut,213 Chestnut Street,,Oneonta,NY,13820,United States
The Marketplace on Main,5351 North Main Street,,Cowpens,SC,29330,United States
Markets at Pleasant Treasures,4020 Pleasant Ave.,,Hamilton,OH,45015,United States
Mary Katherine's,114 West Front St.,,Burlington,NC,27215,United States
The Maze,131 West Forsyth St,,Americus,GA,31709,United States
"McCrary's Antiques, Arts & Crafts",2443 Church Street,,Byhalia,MS,38611,United States
McMinnville Antiques and More,1123 Sparta Street,Suite B,McMinnville,TN,37110,United States
McRae Marketplace,72 E. Oak St.,,McRae,GA,31055,United States
MediaNoche,9200 Stony Point Pkwy,#130,Richmond,VA,23225,United States
Meeting Street Boutiques,101 E. Meeting St.,,Dandridge,TN,37725,United States
Melanie's - A Vendor Mall,34921 Hwy 96 S,,Buna,TX,77612,United States
Mel's Thrift Shop,1678 S. 1900 W. Bldg. A,,West Haven,UT,84401,United States
Memory Lane Antiques and More,2721 Hwy 441 Homer Rd,,Commerce,GA,30549,United States
Memory Lane Bellport Antiques & Collectibles,10 Farber Drive,Store#20,Bellport,NY,11713,United States
The Menagerie on Market,2302 Market St.,,Pascagoula,MS,39567,United States
The Mercantile,7136 Cahaba Valley Road,,Birmingham,AL,35242,United States
The Mercantile,219 W. Van Buren St.,,Columbia City,IN,46725,United States
Mercantile at the Ridge,6725 Ringgold Road,,Chattanooga,TN,37412,United States
Merchants on Main,607 E. Main St.,,Chattanooga,TN,37408,United States
The Mermaids Trove,4444 Arendell St.,Unit C,Morehead City,NC,28557,United States
Merry Go Round Antique Mall,1407 19th St.,,Bakersfield,CA,93301,United States
Metter Mercantile,21 North Kennedy Street,,Metter,GA,30439,United States
Mid Mod Collective,1621 North Central Street,,Knoxville,TN,37917,United States
Middle Bridge Antiques,28970 Commercial Ave.,,Warsaw,MO,65355,United States
Midtown Floral and Gifts,200 East 14th,,Ada,OK,74820,United States
Midtown Home & Vintage Market,811 N. 4th St.,,Coeur d' Alene,ID,83814,United States
Midwest Memories Antiques ltd,24 W. Main St.,,Tipp City,OH,45371,United States
Midwest Vintage Company,#8 East Industrial Park Drive,,Pittsfield,IL,62363,United States
The Milford Market,22 Clinton St.,,Milford,NH,3055,United States
The Mill,S42 W31254 Hwy 83,,Genesee Depot,WI,53127,United States
Mill City Market,933 Roanoke Ave.,,Roanoke Rapids,NC,27870,United States
Mill Creek Antique Mall,805 19th St.,,Bakersfield,CA,93301,United States
Mill Creek Mercantile,205 McGavock Pike,,Nashville,TN,37214,United States
Mill Street Antiques,44 Mill Street,,Healdsburg,CA,95448,United States
Mimi's Vintage & Decor,12307 Jones Rd.,,Houston,TX,77070,United States
Minocqua Antique Company,8536 US Highway 51N,,Minocqua,WI,54548,United States
Miss Daisy's Attic,2702 Richard Joseph Blvd.,,Joplin,MO,64804,United States
Miss Lucille's Marketplace,2231-A Madison Street,,Clarksville,TN,37043,United States
Mission Galleria,3700 Main St.,,Riverside,CA,92501,United States
Mission Vintage,28221 Marguerite Parkway,,Mission Viejo,CA,92692,United States
Mississippi Marketplace,4004 West Kimberly Rd.,Suite B,Davenport,IA,52806,United States
Mitchell Road Antique & Design Centre,17 Bourke Road,,Sydney,NSW,2234,Australia
Mixie's,7508 Mechanicsville Turnpike,,Mechanicsville,VA,23111,United States
Mockingbird Lane,123 North Range Ave.,,Denham Springs,LA,70726,United States
Mollie's Unique Finds and Furniture,5054 Hwy 90,,Pace,FL,32571,United States
Molly & Friends LLC,10813 Courthouse Rd,Suite 100,Fredericksburg,VA,22408,United States
Monique's CLOZET!,4140 MacArthur Blvd.,,Oakland,CA,94619,United States
The Monogram Spot,611 Doug Baker Blvd,#114,Birmingham,AL,35242,United States
Monroe Mercantile,1902 Forsythe Ave.,,Monroe,LA,71201,United States
Monticello Antique Marketplace,8600 Southeast Stark St.,,Portland,OR,97216,United States
Mood Ring Vintage,907 Sevier Avenue,Unit 112,Knoxville,TN,37920,United States
Moore Old Signs & Advertising Memorabilia,10134 North Crowley Rd.,,Crowley,TX,76036,United States
Morgan County Flea Market,1600 Athens Hwy,,Madison,GA,30650,United States
Morgan's on Broad,123 East Broad Street,,Dunn,NC,28334,United States
Morgan's on Main,121 E. Main St.,,Benson,NC,27504,United States
Morpeth Antique Centre,175 Swan St.,,Morpeth,NSW,2321,Australia
The Mother Lode,16 Tobias Street,,Kernville,CA,93238,United States
Mountain View Antiques,121 Shannon Bradley Rd.,,Gastonia,NC,28052,United States
Mountainside Mercantile,3139 Winfield Dunn Pkwy.,,Knoxville,TN,37764,United States
Mrs. Pinkadot,1914 Granby St.,,Norfolk,VA,23517,United States
Music Valley Antiques and Marketplace,2416 Music Valley Dr. #126,,Nashville,TN,37214,United States
Music Valley Handmade,2416 Music Valley Drive,,Nashville,TN,37214,United States
The Mustard Seed,2248 Dayton Blvd.,,Chattanooga,TN,37415,United States
The Mustard Seed Market & Cafe,130 S. Horton Parkway,,Chapel Hill,TN,37034,United States
My-D Pins & Collectibles,1648 W. Katella Ave.,Suite B,Anaheim,CA,92802,United States
Nana's Antique and Gifts,511 Frisco Ave.,,Clinton,OK,73601,United States
Nana's Hidden Attic,18395 West Frontage Rd.,,Litchfield,IL,62056,United States
Nashville Farmers Market,,,Nashville,GA,31639,United States
Natchez Junk Genies & Antique Market,512 Franklin St.,,Natchez,MS,39120,United States
Nathan Hale Antique Center,1141 Main Street,,Coventry,CT,6238,United States
Native Antique Mall,2148 S. Sheridan Rd.,,Tulsa,OK,74129,United States
NC Art Shop,223 N. Chatham Ave.,,Siler City,NC,27344,United States
Needful Things Antiques & Flea Market,152 W. Coffee St.,,Hazlehurst,GA,31539,United States
Needful Things Antiques & Flea Market,60 West Oak Street,,Mcrae-Helena,GA,31055,United States
Needful Things Market,12701 E. 86th Place,,Owasso,OK,74055,United States
"Nest 1896, LLC",204 W. Columbus Ave.,,Bellefontaine,OH,43311,United States
The Nest Egg,2393 Sunset Drive,,Grenada,MS,38901,United States
The Nest Egg,101 N. Thornton St.,,Richmond,MO,64085,United States
The Nest Marketplace,7265 Lowell Blvd.,,Westminster,CO,80030,United States
Never Forgotten Thymes,726 E Cerro Gordo St,,Decatur,IL,,United States
New Day,1187 E. F Street,,Oakdale,CA,95361,United States
New E Nuff,3901 N. College Ave.,,Bethany,OK,73008,United States
New Hope Antiques Center,6148 Lower York Road,,New Hope,PA,18938,United States
New Paris Antique Mall,102 E. Main St.,,New Paris,OH,45347,United States
New Roads Antique Mall,118 E. Main St.,,New Roads,LA,70760,United States
New Used & Abused,7107 Hwy 62 W,,Salem,AR,,United States
New Visions Marketplace,5428 Asheville Highway,,Naples,NC,28760,United States
Newberry Artisan Market,236 Main Street,,Saugerties,NY,12477,United States
Niagara Emporium,4545 Transit Rd.,,Williamsville,NY,14221,United States
Nicole's Beach Street Mall,140 N. Beach St.,,Daytona Beach,FL,32114,United States
Nine Oaks Market on Main,213 E. Main St.,,Oak Grove,LA,,United States
Nivroc's,15 Monument Square,,Urbana,OH,43078,United States
No. 38 Vintage Marketplace,157 Old Shackle Island Rd.,,Hendersonville,TN,37075,United States
Norma Jean's Jewelry & Antiques,6734 NW 39th Expwy,,Bethany,OK,73008,United States
North Jackson Antiques & Uniques,106 Salem Warren Rd.,,North Jackson,OH,44451,United States
Northrop Antiques Mall,111 East Moore St.,,Southport,NC,28461,United States
Northside Curiosity,55 Burnt Mountain Road,,Jasper,GA,30143,United States
Nostalgia,5214 Homberg Dr.,,Knoxville,TN,37919,United States
Nostalgia Antiques,2909 Murdoch Ave.,,Parkersburg,WV,26101,United States
"Not So Shabby, LLC",2975 West Shore Dr.,,Holland,MI,49424,United States
Now Then and Again,1864 Apperson Dr.,,Salem,VA,24153,United States
Oakes & Olivers,16 Laurel Lake Dr.,,Monteagle,TN,37356,United States
Oat Valley Vintage,31750 North Redwood Hwy.,,Cloverdale,CA,95425,United States
The Oddities Shop,116 N. Main St.,,Miami,OK,74354,United States
Odessa's Gift and Local Finds,107 N. Witte St.,,Poteau,OK,74953,United States
Off The Hinge Antiques,201 North Walnut,,Brazil,IN,47834,United States
Off the Oval,326 Nashua St.,,Milford,NH,3055,United States
Old Crows Antiques,10081 West Cowles Avenue,,Littleton,CO,80127,United States
Old Mill Antiques,,,Glen Alpine,NC,,United States
Old Riley School Flea Market and Auction Gallery,1901 N. Walnut St.,,Muncie,IN,47303,United States
The Old Schoolhouse,4045 St Rt 721,,Bradford,OH,45308,United States
Old Stone Mill,800 Jefferson St.,,Burlington,IA,52601,United States
Old Time Finds,2807 Barbara Dr.,,High Ridge,MO,63049,United States
Old Time Finds - Small Store,2819 Barbara Dr.,,High Ridge,MO,63049,United States
Old Town Antiques & Collectibles,400 North 3rd St.,,Ozark,MO,,United States
Old Town Junction,188 West Tefft St,Unit 1,Nipomo,CA,93444,United States
Old Town Road Flea Market,194 County Rd 556,,Poplar Bluff,MO,63901,United States
Old Town Tiques Mall,306 Seacourt St.,,Midland,TX,79701,United States
Old Wagon Antique Mall,10685 Melody Dr.,,Northglenn,CO,80234,United States
Old West Antiques,237 S. Main St.,,Pendleton,OR,97801,United States
Olde America Antique Mall,2720 S. 32nd Street,,Muskogee,OK,74401,United States
Olde Farmhouse Antique Mall & Farmer's Market,8577 Hwy. 25E,,Cross Plains ,TN,37049,United States
Oldies and Goodies,158 S. Congress St.,,Winnsboro,SC,29180,United States
Oldies But Goodies Antiques & Flea Market,18042 Hwy 82,,Mathiston,MS,39744,United States
Ole Charlie's,7405 Hwy 57,,Counce,TN,38326,United States
Ole Kuntry Mall,1055 Mineral Wells Avenue,Suite 8,Paris,TX,38242,United States
Ole Store Primitives,65 Dunmor Church St.,,Dunmor,KY,42339,United States
Olen & Co. Market,11 North 3rd St.,,Fort Smith,AR,,United States
Olive Branch Antiques & Home Decor,113 North Broad Street,,Monroe,GA,30655,United States
On Lake Time,211 West State St.,,Fox Lake,WI,53933,United States
On The Square Antiques,18 West High St.,,Mount Gilead,OH,43338,United States
On the Square Antiques Emporium,116 S. Main St.,,Crown Point,IN,46307,United States
Once Upon A Time,6103 B Alabama Highway,,Ringgold,GA,30736,United States
Once Upon A Time Â…,440 Pollasky Ave.,,Clovis,CA,93612,United States
Oneida Commons,157 Cedar Street,,Oneida,NY,13421,United States
Oooodles Antiques,3733 Navy Blvd.,,Pensacola,FL,32507,United States
The Orchards at Keo,50 Antique Way,,Keo,AR,72083,United States
The Orderly Hoarder,,,Owasso,OK,,United States
Originals Mall of Antiques,1475 S. Washburn St.,,Oshkosh,WI,54904,United States
Our House Antiques,510 E. King St.,,Polo,IL,61064,United States
Out of the Attic Flea Market,304 East Jackson St.,,Willard,MO,65781,United States
Out of the Closet,61 Endicott St.,Bldg. 26,Norwood,MA,2062,United States
Owls & Acorns Antiques,11 South Street,,Bernardston,MA,1337,United States
The Owls Nest Adams,2901 SE Adams Street,,Topeka,KS,66605,United States
Owl's Nest Flea Market and Antiques - On The Blvd,4720 Texas Blvd.,,Texarkana,TX,75503,United States
The Owls Nest Topeka,3411 SW Topeka Blvd.,,Topeka,KS,66611,United States
Oxford Barn,891 Main St.,,Oxford,ME,4270,United States
Ozark Relics,6045 Hwy. 62 W,,Gassville,AR,2635,United States
Paducah Antique Mall,407 Broadway,,Paducah,KY,42001,United States
Painted Lady Antiques,141 E. Cascade Ave.,Suite 104,Sisters,OR,97759,United States
The Painted Lady Boutique LLC,,,Douglas,GA,,United States
The Painted Perch & Co.,9715 Kingston Pike,,Knoxville,TN,37922,United States
Palmer Antiques Co-op,1239 South Main St.,,Palmer,MA,1069,United States
Palmer Antiques Storage,1239 South Main St.,,Palmer,MA,1069,United States
Palmetto Peddlers,2295 Hoffmeyer Rd.,,Florence,SC,29501,United States
Pam's Used Furniture,727 14th Street W,,Huntington,WV,25704,United States
Papa's Treasures,10427 US 19 N,,Port Richey,FL,34668,United States
Paramount Antique Mall,13200 W. Highway 54 (Kellogg),,Wichita,KS,67235,United States
Paramount East Antique Mall,10187 SW. Hwy 54,,Augusta,KS,67010,United States
Paramount Marketplace,6297 E. 13th St.,,Wichita,KS,67208,United States
Paris on Ponce,716 Ponce de Leon Place,,Atlanta,GA,,United States
Park Hill Treasures,6035 East Colfax Avenue,,Denver,CO,80220,United States
Park West Vintage,,,Marietta,GA,,United States
Parrot's Cove Mall,625 Florida Ave.,,Cocoa,FL,32922,United States
Paso Robles Antiques and Vintage,1329 Spring St.,,Paso Robles,CA,93446,United States
Past & Present,100 Full House Drive,,Winchester,VA,22603,United States
Past and Presents,2145 Tyler Rd.,,Hoover,AL,35226,United States
The Past Time Antique Emporium,228 East Main St.,,Marion,VA,24354,United States
Pastime Treasures,31631 West Hwy 84,,McGregor,TX,76657,United States
Pastimes Resale Shop,5336 NC Hwy 211,,West End,NC,27376,United States
Patina,57 Shethar St.,,Hammondsport,NY,14840,United States
Patina,1046 Washington St. East,,Lewisburg,WV,24901,United States
Paula's Grandtiques,37266 Niles Blvd.,,Fremont,CA,94536,United States
Peacocks Vintage Picks,3005 US Hwy 301,,Latta,SC,29565,United States
Peanut Butter Warehouse Boutiques,100 20th St.,,Galveston,TX,77550,United States
Pearl's Vintage Treasures,51 Public Square,,Lancaster,KY,40444,United States
Pecos River Antique Mall,110 South Canyon St.,,Carlsbad,NM,88220,United States
Peddler Pete's Tradin' Post,121 South Commercial Street,,Branson,MO,65672,United States
The Peddler's,1847 S. Main St.,,Jacksonville,IL,62650,United States
Peddlers Mall,7803 E Washington Street,,Indianapolis,IN,46219,United States
Peddlers Market,400 Direct Connection Dr.,,Rossville,GA,30741,United States
Peddler's Market,520 E. Main St.,,Visalia,CA,93292,United States
Pedigo Furniture and Home Decor,217 South Cypress Street,,Hammond,LA,70403,United States
Pelican Avenue Vintage Market,30493 Ardmore Ave.,,Ardmore,AL,35739,United States
Pendleton Place Antiques,211 N. Mechanic St.,,Pendleton,SC,29670,United States
Pennistons Alley Antiques,102 W. Old Street,,Petersburg,VA,23803,United States
People's Store,28 North Union St.,,Lambertville,NJ,8053,United States
Peppers Antiquities N Beyond,1710 Blanco Rd.,,San Antonio,TX,78212,United States
The Perfect Picker,11 S. Mechanic St.,,Lynchburg,TN,37352,United States
"Pickens, Possibilities & More",111 NE Front St.,,New Boston,TX,75570,United States
Pickers and Collectors Market,E Shed Market,Peter Hughes Drive,Fremantle,WA,6163,Australia
Pickers on the Square,113 Main Street North,,Fayetteville,TN,37334,United States
Pickers Paradise,209c Washington Street,,Doniphan,MO,63935,United States
Pickers Paradise,129 N. Broadway,,Greensburg,IN,47240,United States
Picker's Paradise Antique Mall,2390 Sissonville Dr.,,Charleston,WV,25387,United States
Pickers Paradise Antique Vendors Market,,,New Tazwell,TN,,United States
Pickers Paradise on Park,4301 Park Blvd. N.,,Pinellas Park,FL,33781,United States
Pickers Paradise Trader Mall,1750 25th St.,,Columbus,IN,47201,United States
"Pickers Paradise, LLC",1391 Southern Dunes Blvd.,,Haines City,FL,33844,United States
Picket Fence Antiques LLC,1127 Canal Boulevard,,Thibodaux,LA,70301,United States
Picket Fence Vintage,834 Rt. 28,,South Yarmouth,MA,2664,United States
Pickin Chick LLC,729 36th St. SW,,Wyoming,MI,49509,United States
Pieces on the Beach,2505 Thomas Dr.,,Panama City Beach,FL,32408,United States
Pine Street Market,12107 E. Sprague Ave.,,Spokane Valley,WA,99206,United States
Pine Street Relics,,,Exeter,CA,,United States
Pine Tree Peddlers,107 S. Washington St.,,Sonora,CA,95370,United States
Pink Elephant Mall,908 Veterans Memorial Drive,,Livingston,IL,62058,United States
Pismo Pickers Antiques & Vintage,537 Five Cities Dr.,,Pismo Beach,CA,93449,United States
Pocono Peddlers Village Antique Mall,246 Stadden Rd,,Tannersville,PA,18372,United States
Point Pavilion Antique Centre,608 Arnold Ave.,,Point Pleasant Beach,NJ,8742,United States
Poppy's Antiques,,,Eldon,MO,65026,United States
Pop's Place,,,Rome,GA,,United States
Prairie Chic,9 S. Broadway St.,,Herington,KS,67449,United States
Prairie Marketplace,100 E. Front St.,,Hazen,AR,72064,United States
Prairie Winds Market,501 South Mustang Road,Suite K,Yukon,OK,73099,United States
Prescott Antiques,915 E. Gurley St.,,Prescott,AZ,86301,United States
Prestige Creative Markets + Nursery,28W 761 Army Trail Rd.,,Bartlett,IL,60185,United States
Prindi's Antique Mall,2 East Railroad St.,,Sandwich,IL,60548,United States
Prissy Peacock Consignment/Antique Mall,4029 US Hwy 90,,Pace,FL,32571,United States
Project1,2012 Staples Mill Road,,Richmond,VA,23230,United States
"Promise Land Gifts, Inc.",5675 Hwy 90,Unit H,Milton,FL,32583,United States
Prospect Hill Antiques,247 Prospect Hill Rd.,,Georges Mills,NH,3751,United States
Prospect Hill Home,,,Sunapee,NH,,United States
The Prospector,12482 Prospect Rd,,Strongsville,OH,44149,United States
Proverbs Woman Design,201 South Main Ave S,,Fayetteville,TN,37334,United States
The Purple Door,106 West Walnut Street,,Smithville,TN,37166,United States
Purple Porch Consignment & Mini Resale Mall,1317 West Poinsett St.,Suite E,Greer,SC,29650,United States
Queensville Antique Mall,20091 Woodbine Ave.,,East Gwillimbury,ON,L0G1R0,Canada
The Rabbit Box Antiques & Collectibles,614 East Main Street,,Ridge Spring,SC,29129,United States
The Rabbit Hole Marketplace,108-A Highway 59 South,,Summerdale,AL,36580,United States
Rags n Roses Collective,100 N. Main St.,,Greenwood,AR,72936,United States
Rags to Riches Flea Market,113 W Main Street,,Anderson,MO,64831,United States
Railroad Station Antiques,315 N. Jefferson St.,,Huntsville,AL,35801,United States
The Rampant Bear,127 Main St.,,Andover,NJ,7821,United States
Rare Bird Antique Mall,212 S. Main Street,,Goodlettsville,TN,37075,United States
Rave Finds,523 S. Access Rd.,,Clyde,TX,79510,United States
RC Flea Mart,1031 West Kerney St.,,Springfield,MO,65803,United States
Re:Done,331 S. Lumpkin St.,,Monroe,GA,30655,United States
Rebel's Roost Antique Emporium,2885 York Rd.,,Gettysburg,PA,17325,United States
Recaptured Charm,94 Hwy 64 W,Suite 5,Cashiers,NC,,United States
Reclaim Country,,,Humble,TX,,United States
Reclaimed America LLC,1466 Highway 17N,,Little River,SC,29566,United States
Reclaimed Living,612 Arnold Avenue,,Point Pleasant Beach,NJ,8742,United States
Reclamation Marketplace,936 Commercial St.,,Astoria,OR,97103,United States
Recollections Antique Mall,124 N. 1st St.,,Guthrie,OK,73044,United States
Recollections By Lynn,745 Main St.,,Perry,GA,,United States
Recycled Homestead,685N. Old 71 Hwy,,Adrian,MO,64720,United States
Red Barn Antique Mall,2150 Highway 70 East,,Jackson,TN,38305,United States
Red Barn Boutique,805 Baltimore St.,Suite 313,Hanover,PA,17331,United States
Red Barn Market,25114 State Highway 39,,Shell Knob,MO,65641,United States
Red Beards Treasure Chest,15325 S. Memorial Dr.,,Bixby,OK,74008,United States
"The Red Door Antiques, Vintage & More",,,Elk Grove,CA,,United States
Red Goat General Store,9446 Hwy 503,,Hickory,MS,39332,United States
The Red Lion,1929 Hampton St.,,Columbia,SC,29201,United States
Red Plantation,,,Poulsbo,WA,,United States
Red Queen's Attic,900 3rd St.,,Rosenberg,TX,77471,United States
Red Ranch Shoppes,214 S. Main St.,,Fortville,IN,46040,United States
Redbird Boutique & Gifts,3024 University Dr.,Suite D,Huntsville,AL,35816,United States
Redefined Finds,6258 Main St.,,Stouffville,ON,L4A1E2,Canada
Redlands Galleria,17 E. State St.,,Redlands,CA,92373,United States
Refab Resale,733 Main St.,#B,Ramona,CA,92065,United States
Refind,,,Elgin,SC,,United States
The Refindery,1300 McCallie Ave.,,Chattanooga,TN,,United States
The Refindery at Polished Peasant,2304 Maplewood Dr.,,Sulphur,LA,70663,United States
Reflections Flea Market,3555 Hwy 67,,Walnut Ridge,AR,72476,United States
Refuge of Light 'Grounds for Justice',,,Tyler,TX,,United States
Re-Invintaged Home Decor & More,120 South Churton St.,,Hillsborough,NC,27278,United States
Relics,212 Highway 50,,Rosebud,MO,63091,United States
Relics On Oak,34 West Oak,,Arcadia,FL,34266,United States
ReLux Vintage,316 Franklin Street,,Geneva,IL,,United States
Remains to be Seen,110N. 4th Street,,Mebane,NC,,United States
Remember When,152 N Ocean Ave,,Cayucos,CA,93430,United States
Remember When Antique Emporium,195 Ottawa Street North,,Hamilton,ON,L8H3Z4,Canada
Remember When Too,36 N Ocean Ave,,Cayucos,CA,93430,United States
Remember Yesteryears,,,Oakdale,NY,,United States
Renaissance Peddler,4336 Highway 78,,Julian,CA,92036,United States
Rend Lake Antique Mall,301 Ina Ave.,,Ina,IL,62864,United States
Renee's,221 5th Street,,West Des Moines,IA,50265,United States
Renewed and Reclaimed,216 Main St.,,Menasha,WI,54952,United States
Renewed Creations,213 East Main St.,,McMinnville,TN,37110,United States
Renovatio Redesigns,910 West Bay Drive,,Largo,FL,33770,United States
ReRun Treasures,712 Cleveland St.,,Sebastian,FL,,United States
Resale Connection,1917 Ogdon Ave.,,Downers Grove,IL,60515,United States
The Resale Lady of Topeka,5608 W. Topeka Blvd.,Suite A,Topeka,KS,66609,United States
Rescue Me Market,117 S Center St,,Thomaston,GA,,United States
Restyled Furnishings,12933 State Rd 23,,Granger,IN,46530,United States
Retro 66 Vintage Market,408 S. Jm Davis Blvd.,,Claremore,OK,74017,United States
Retrospect,1121 North Central StreetÂ ,,Knoxville,TN,37917,United States
ReVamp Vintage,1555 N. Harbor City Blvd.,,Melbourne,FL,32935,United States
"Revival Antiques, LLC",1805 East Main Street,,Easley,SC,29640,United States
RF Artisan Market,75 Main Street,,Markham,ON,L3P 1X7,Canada
Rhapsody Interiors,915 1st St.,Suite A,Snohomish,WA,9890,United States
Rhonda's Relics,,,Arroyo Grande,CA,93420,United States
Rick's Vintage Shop & Antique Market,470 East Commerce St.,,Hernando,MS,38632,United States
Riker's Fleas and Furniture,407 N. Old Wilderness Rd.,,Nixa,MO,65714,United States
Riley's Relics,,,Mesa,AZ,,United States
The Rivah,49 S. Main St.,,Kilmarnock,VA,22482,United States
River Market Thrift,345 Fob James Drive,,Valley,AL,36854,United States
Riverfront Antiques,243 5th Ave,,Clinton,IA,52732,United States
Rivertown Treasure Chest,306 G St.,,Antioch,CA,94509,United States
Riverview Antique Market,2045 W. St. Paul Ave.,,Milwaukee,WI,53233,United States
Riverview Antique N Market Place,911 Freeport Rd.,,Cheswick,PA,15024,United States
RiverWest Antique Mall,1029 W. 2nd St.,,Madison,IN,47250,United States
RoadRunner Antiques,2197 Church Street,,Conway,SC,29526,United States
"Roanoke Antique Mall, Inc.",2302 Orange Ave. NE,,Roanoke,VA,24012,United States
Robin's Egg,199 State Rt. 101,,Amherst,NH,3031,United States
The Robin's Nest,6511 Slater Road,,East Ridge,TN,37412,United States
The Robin's Nest,400 22nd Avenue,,Meridian,MS,39301,United States
The Rocking Rooster Flea Market,505 South Second Avenue,,Paragould,AR,72501,United States
Romantic Farmhouse,218 Bobby Jones Expressway,,Martinez,GA,30907,United States
Ron Atwood Shreveport West,7288 Greenwood Road,Suite 107,Shreveport,LA,71119,United States
The Roost,,,Pocahontas,AR,72455,United States
Rooster's Market,3209 Kaliste Saloom Rd,,Lafayette,LA,70508,United States
Rose Royce Antiques,5625 3rd Street,,Katy,TX,77493,United States
The Roundabout,2575 O'Neal Lane,,Baton Rouge,LA,70816,United States
Route #43 Antique Mall,8340 Kent Ave. NE,,Canton,OH,44721,United States
Route 1 Antiques,106 Lafayette Road,,Hampton Falls,NH,3844,United States
Route 66 Antiques & Marketplace,17711 Campground Rd.,,Phillipsburg,MO,65722,United States
Route 66 Road Relics,22255 West Old Highway 66,,Seligman,AZ,86337,United States
Royal Roosters Trading Post,10201 Hwy 431 S,,New Hope,AL,35760,United States
Rt. 40 Vendor Mall,1813 National Road,,Richmond,IN,,United States
Rushmore Antiques Mall,2200 N. Maple Ave Unit 300,,Rapid City,SD,57701,United States
Rust & Feathers,14928 James Monroe Hwy,,Leesburg,VA,20176,United States
Rust & Roses LLC,383 East Madison Street,,Franklin,IN,46131,United States
Rust & Ruffles,,,Owasso,OK,,United States
Rust & Shine,600 Cemetary St.,,Williamsport,PA,17701,United States
Rustic & Pipe Decor,,,Sanford,FL,,United States
Rustic & Refined Interiors,1420 19th St.,Suite B,Bakersfield,CA,93391,United States
The Rustic Barn Flea Market,1205 E 12th St,,Lamar,MO,64759,United States
"Rustic Boutique, LLC",,,Bellefontaine,OH,,United States
Rustic Charm,214 West Lamar St.,,Americus,GA,31709,United States
The Rustic Flair Boutique,107 Bank Street,,Union,MS,39365,United States
Rustic Journeys,1735 Oviedo Mall Blvd.,,Oviedo,FL,32765,United States
Rustic Reflections,267 North Main St.,,Crestview,FL,32536,United States
Rustic Retail Market,10 Greenwich St.,,Belvidere,NJ,7823,United States
The Rustic Rooster Emporium,15 South Main St,,Cleveland,GA,30538,United States
Rustic South,82244 Hwy. 25,,Folsom,LA,70437,United States
Rustic Thinking Flea Market,11762 US Hwy 160E,,Fairdealing,MO,,United States
Rustique,,,Pearland,TX,,United States
Rustique Relics,706 Second Ave. N.,,Clanton,AL,35045,United States
Rustique Relics,8191 S. US Why 69,,Savanna,OK,74565,United States
"Rusty Harden Studio, LLC",110 E. Main Street,,Tipp City,OH,45371,United States
The Rusty Rooster,620 Bloomfield Rd.,,Bardstown,KY,40004,United States
The Rusty Rooster Flea Market & Treasure Coop,1340 Hwy 62 East,,Mountain Home,AR,72653,United States
Rusty Rooster Vintage Shops,211 N. Range Ave.,,Denham Springs,LA,70726,United States
Rusty Rose Cottage,,,Placerville,CA,,United States
The Rusty Star,31 West Montello Street,,Montello,WI,53949,United States
RVA Antiques,6102 Lakeside Ave.,,Richmond,VA,23228,United States
Sadie & Co.,,,Dawson,GA,,United States
Safety Harbor Galleria,123 2nd Ave. South,,Safety Harbor,FL,34695,United States
Salty Mermaid Marketplace,7829 Front Beach Rd.,,Panama City Beach,FL,32407,United States
Salvage Angel,61 Endicott Street,,Norwood,MA,2062,United States
Salvage Antiques Vintage Etc.,,,Florence,CO,,United States
Sammy's Antiques and More,9829 North Main St.,,Wilsonville,AL,35186,United States
Sanders Harristown Depot Antiques,1190 North Meridian,,Harristown,IL,62537,United States
Sanders Hwy 41 S Mall,,,Springfield,TN,,United States
Sarah Whitcomb Antiques,3550 Taylor Road,,Loomis,CA,95650,United States
Sassy Imaginations,225 W. Main St.,,Azle,TX,76020,United States
Sassy Sisters Boutique,132 W. Broad St.,,Decatur,MS,39327,United States
Sassy's Antique,3280 Highway 135,,Corning,AR,72422,United States
Saugerties Antique Center,220 Main St.,,Saugerties,NY,12477,United States
Sawbrush Boutique,10726 Business 21,,Hillsboro,MO,63050,United States
SB Urban Flea Market,651 Paseo Neuvo ,,Santa Barbara,CA,93101,United States
Schoolhouse Antiques LLC,103 N. College St.,,Palmyra,PA,17078,United States
Seahorse Antiques & Interiors,907 B Arendell St.,,Morehead City,NC,28557,United States
Second Chances Antiques & Treasures,2448 Hwy 41A Bypass,,Clarksville,TN,37043,United States
Second Chances Barn,3137 S. Mission Rd.,,Fallbrook,CA,92028,United States
Secondhand Rose,14 N. School St.,,Lodi,CA,95240,United States
Serendipity Antique Gallery,876 North Hanover Street,,Carlisle,PA,17013,United States
Serendipity Antiques & Interiors,22335 US Hwy 72 E,Suite B,Athens,AL,35613,United States
Serendipity on Main,116 West Main St.,,Ada,OK,74820,United States
The Shabby Cottage,19663 South McCord Rd.,,Oregon City,OR,97045,United States
Shabby Lane,7278 Nolensville Rd.,,Nolensville,TN,37135,United States
Shabby Shack Mall,444 Asheville Hwy,,Brevard,NC,28712,United States
Shades Mountain Mercantile,770 Shades Mountain Plaza,,Hoover,AL,35226,United States
Shady Oak Marketplace,200 South Ash Street,,Buffalo,MO,65622,United States
Shady Pines Primitives,36 South Market Street,,Selinsgrove,PA,17870,United States
Shaggy's Indoor Flea Market,175 N. Crescent Ridge,,Dubuque,IA,52003,United States
Shasta Antique Mall,2680 Bechelli Lane,,Redding,CA,96002,United States
Shawn's Flea Maket,285 Prince Royal Dr,,Berea,KY,,United States
The She Shed by The Peachy Pig,1518 19th St.,,Bakersfield,CA,93301,United States
Shiplap & Chandeliers,61 Endicott Street - Building 25C ,,Norwood,MA,2062,United States
"The Shop - Shop Small Shop Handmade, LLC",124 North Green Street,,Crawfordsville,IN,47933,United States
The Shop at Dragonfly Village,9221 Oak Ridge Hwy,,Oak Ridge,TN,37830,United States
The Shop at Our Place,127 WC Bryant Parkway,,Calhoun,GA,30701,United States
The Shoppes at Oldies But Goodies,10 Carpenter Rd.,,Big Flats,NY,14903,United States
The Shoppes at Sango,3470 Highway 41A South,,Clarksville,TN,37043,United States
Shoppes at the Pink Cabana,,,Tampa,FL,,United States
Shoppes on Davis,105 S. Davis,,Nashville,GA,31639,United States
The Shops @ The Sanctuary,202 N. Chauncey St.,,Columbia City,IN,46725,United States
The Shops at Miller Station,119 Ward St,,Senatobia,MS,38668,United States
Shops at Southern Royalty,6009 E. US Hwy 84,,Gatesville,TX,76528,United States
The Shops on Main,212 S. Main St.,,Lancaster,SC,29720,United States
Shoreline Vintage,1343 Harding Rt. 40,,Richland,NJ,,United States
Shorty B's Fleamarket,8715 Hwy 107,,Sherwood,AR,72120,United States
SHOWCASE Antiques of CNY,375 Canal Place,,Little Falls,NY,13365,United States
Show-Me Surplus & Consignment,13157 HWY 52,,Versailles,MO,65084,United States
Sibs,348 National Rd.,,Wheeling,WV,26003,United States
Side Door Market,50 Sycamore Rd.,,Coldwater,MS,38618,United States
Sign of the Pineapple,137 East Grand River,,Williamston,MI,48895,United States
Signature Gifts LLC,140 Township Ave.,Suite 110,Ridgeland,MS,39157,United States
Simple Finds,3614 Chamblee Dunwoody Road,,Chamblee,GA,30341,United States
Simple Finds Estate Sale Services,3614 Chamblee Dunwoody Road,,Chamblee,GA,30341,United States
Simpler Times,1880 S US HWY 231,Suite H,Crawfordsville,TN,47933,United States
Simply Southern Marketplace,921 20th St.,,Haleyville,AL,35565,United States
Simply Spruced,1174 E. Austin Street,,Giddings,TX,78942,United States
Sinclair Antiques,550 S. Rochester Rd.,,Clawson,MI,48017,United States
Sissy's Antiques & Interiors,208 Main Ave. S.,,Fayetteville,Tn,37334,United States
Sisters Attic,12785 Spotswood Trail,,Ruckersville,VA,22968,United States
Sixty-Seeks Antiques,Vega Blvd (Rt. 66),,Vega,TX,,United States
Skeleton Key Art and Antiques,520 18th Street,,Rock Island,IL,61201,United States
SkinnyFish Consignments,4444 C Arendell St.,,Morehead City,NC,28557,United States
Skyland Antiques,311 Skyland Blvd.,,Tuscaloosa,AL,35405,United States
Skyway Antique Mall,6118 Skyway,,Paradise,CA,95969,United States
Slater St. Antiques,5905 Slater Street,,Merriam,KS,66202,United States
Smith Building Mercantile,623 Broad St.,,Altavista,VA,24517,United States
Smith's Antiques Mall,12500 US 98 West,,Miramar Beach,FL,32550,United States
Smith's Hodge Podge Shoppe,436 East Main St.,,Alliance,OH,44601,United States
Snow's Antique Mall,12785 Spotswood Trail,,Ruckersville,VA,22968,United States
Snow's Feed Store Antiques,12785 Spotswood Trail,,Ruckersville,VA,22968,United States
Social Butterfly Marketplace,103 West Washington St.,,Demopolis,AL,36732,United States
South Decatur Mercantile,102 Country Club Road,,Decatur,MS,39327,United States
South Louisville Antique & Toy Mall,4150-8 East Blue Lick Rd.,,Louisville,KY,40229,United States
Southern Antiques and Accents,254 S. Greeno Rd.,,Fairhope,AL,36532,United States
Southern Attic,6021 South NC 55 Hwy,,Fuquay-Varina,NC,,United States
Southern Charm,8 Greeneville St.,,Newnan,GA,,United States
Southern Charm Home Gallery,625 Red Banks Rd,,Greenville,NC,28590,United States
Southern Charm Vintage Market,5910 Alma Hwy,,Van Buren,AR,72956,United States
Southern Coast Boutique,,,Pace,FL,,United States
Southern Comfort Gifts & Flowers, Hwy 142E,,Doniphan,MO,63935,United States
Southern Comforts A Vintage Boutique,210 East Central ,,Belton,TX,76513,United States
Southern Crafted Jewelry LLC,,,Huntsville,AL,,United States
Southern Flare Antiques and Interiors,1362 Hwy 52 East,,Ellijay,GA,30536,United States
Southern Furniture,254 S. Greeno Rd.,,Fairhope,AL,36532,United States
Southern Gentlemen Antiques & More,,,Lakeland,FL,,United States
Southern Girl Consignment LLC,210 Old Kings Road South,Suite 600,Flagler Beach,FL,32136,United States
Southern Grace Market,11 South Mechanic St.,,Lynchburg,TN,37352,United States
Southern Holiday Shop,104 West Broad Street,,Wedowee,AL,36278,United States
Southern Kentucky Flea Market,52 Cypress Lane,,Guthrie,KY,42234,United States
Southern Maine Indoor Flea Market,578 US Route 1,,Scarborough,ME,4074,United States
Southern Offerings Emporium,,,Bono,AR,,United States
Southern Ohio Antique Mall,1499 State Route 522,,Wheelersburg,OH,45694,United States
Southern Peach Marketplace,411 South Railroad Avenue,,Mount Vernon,GA,30445,United States
Southern Pickers,309 Main St. South,,Tifton,GA,31794,United States
Southern Sisters Junktion,2516 Highway 271 N,,Pittsburg,TX,75686,United States
Southern Trends LLC,1042 Winchester Road,,Huntsville,AL,35811,United States
Southern Vintage Boutique,117 State St,,Doniphan,MO,63935,United States
Southern Vintage Co.,,,Bartlett,TN,38133,United States
Southern Vintage etc. Flea Market,1315 Horridge St.,,Vinton,LA,70688,United States
Southside Market,828 College St.,,Eastman,GA,31023,United States
Sparkle and Spurs,,,Ruidoso,NM,,United States
Spring Street Antique Mall,,,Rockbridge,OH,,United States
The Springfield Antique Barn,700 Willow Street,,Springfield,TN,37172,United States
Spruce,728 Northwest 23rd Avenue,,Portland,OR,97210,United States
Spruce,637 Highway 51,,Ridgeland,MS,39157,United States
St. Jacobs Antique Market,805 King St. N.,,St. Jacobs,ON,N0B 2N0,Canada
St. Joe Antiques Mall,615 Saint Joseph St.,,Rapid City,SD,57701,United States
Stacey's Vintage*Art*Boutique,27102 Albers Ave,,Sioux Falls,SD,57108,United States
Stairway To Heaven Antique Mall,11 Â½ Greenville Street,,Newnan,GA,30263,United States
Steller Home,,,Orcutt,CA,,United States
Stepntime Antiques & Collectibles,902 Gap Newport Pike,,Avondale,PA,19311,United States
Steve Pruiett,,,,MI,,United States
The StockPile,5426 Hwy 31 E,Suite A,Westmoreland,TN,37186,United States
Stone House Antiques Center,3292 Durham Rd. (Rt. 413),,Mechanicsville,PA,18934,United States
Stone Soup Emporium,110 E. Vistula St.,,Bristol,IN,46507,United States
Stonehaus Winery Antiques & Gifts,2444 Genesis Rd.,,Crossville,TN,38571,United States
Stop & Shop Flea Market,6125 Hwy 50,,Sedalia,MO,65301,United States
The Strand,209 S. Main St.,,McGregor,TX,76657,United States
Stump Jumpers Junktion,1360 Sandersville Sharon Road,Suite A,Laurel,MS,39443,United States
Sturbridge Flea Market,,,Sturbridge,MA,,United States
Style Me Southern Boutique + Gifts,9325 Unit A Highway 19 North,,Collinsville,MS,39325,United States
Subtle Black,442 W. Willow St.,,Scottsboro,AL,35768,United States
Sugar Grove Antiques,1109 S. Main St.,,Sugar Grove,OH,43155,United States
SugarPlum Antiques,6509 Slater Road,,East Ridge,TN,37412,United States
Summer Camp Antiques & Gifts,10904 St. Hwy. 42,,Ellison Bay,WI,,United States
Summerland Antique Collective,2192 Ortega Hill Rd.,,Summerland,CA,93067,United States
Summit Mercantile,807 Rob St.,A & B,Summit,KY,,United States
Sunshine West Vintiques,1005 S. Austin Ave.,,Georgetown,TX,78626,United States
Supreme Bargains,2836 Wrecker Hwy,,Winter Haven,FL,33880,United States
Sweet Grace Market at Melville Trading Company,137 West Clay St.,,Mebane,NC,27302,United States
Sweet Pea Trading,437 West State Route 260,,Camp Verde,AZ,86322,United States
Sweet Pickins,3150 Hancock Bridge Pkw.,,North Fort Myers,FL,33903,United States
Sweet Pickins',80 River Run Rd,,Childersburg,AL,35044,United States
Sweet T N Biscuits,6854 Lascassas Pike,,Lascassas,TN,37085,United States
Sweetgrass Artisan Mercantile,23 Crimson Laurel Way,,Bakersville,NC,28705,United States
The Sweetpea & The Rooster Antiques & More,1029 W. Walnut St.,,Rogers,AR,72756,United States
SweetPea's Vintage & More,707 N. 10th St.,,Ozark,MO,65721,United States
Tad's Westfield Shoppes,840 E. Main St.,,Westfield,IN,46074,United States
Take a Chance Flea Market,829 East Andrew Johnson Hwy.,,Greeneville,TN,37745,United States
Tammi Sue's,309 South Hudson Street,,Buckner,MO,64016,United States
Tammi's Treasures Antiques & More,490 West State Route 104,,Divernon,IL,66530,United States
Tannery Antiques LLC,148 E. Main St.,,New Holland,PA,17557,United States
Tara Lee's,248 Morro Bay Blvd.,,Morro Bay,CA,93442,United States
Taras Antique Mall,120 North Main St.,,Goodlettsville,TN,37072,United States
Tate & Tilly,14349 North Dale  Maybry Hwy,,Tampa,FL,33618,United States
Tattered Nest,11649 N. Cave Creek Road,,Phoenix,AZ,85020,United States
Tenpenny Lane,727 East Buenavista Avenue,,North Augusta,SC,29841,United States
Tenpenny's Cottage,433 Georgia Avenue,,North Augusta,GA,29841,United States
Terry's Attic,2805 Linville Falls Hwy,,Newland,NC,28657,United States
Texas Patina,9535 Industrial Rd.,,Justin,TX,76247,United States
Texas Soul,103 A West Church St.,,Ozark,MO,65721,United States
THA-DO-OVA,10813 Courthouse Rd,#102,Fredericksburg,VA,22407,United States
That Shop in Milford,217 Main St.,,Milford,OH,45150,United States
Then & Now Gallery,3551 NW Federal Hwy,,Jensen Beach,FL,34957,United States
Thick Southern Accents Home Store,113 Main Ave. N.,,Fayetteville,TN,37334,United States
Things & Things & Things,"122 South ""C"" St.",,Virginia City,NV,89440,United States
Think Ability Furniture and Thrift Shop,2113 West Beech,,Duncan,OK,73533,United States
This & That Antiques,302 W. Main St.,,Elma,WA,98541,United States
This & That Market,9 North Main St.,,Greenwood,AR,72936,United States
This Little Pig,123 West Main Street,,Wallace,NC,28466,United States
This N That Vendors Mart,1519 East Broadway Ave.,,Maryville,TN,37804,United States
This Old Attic,307 South Main Street,,Mountain Home,AR,72653,United States
Thistle & Ash,806 Caroline St.,,Fredericksburg,VA,22401,United States
Thistle & Thyme Home Store,29 S. 9th Street,,Noblesville,IN,46060,United States
Thoroughbred Antique Gallery,637 E. Main St.,,Lexington,KY,40508,United States
Three Rivers Antiques,615 Meeting St,,Columbia,SC,29169,United States
"Thrift, Gift, and More",89 Jacobs Run,,Salem,WV,26426,United States
Thrifty Chicks Fabulous Finds,5158 Main St.,,Lucedale,MS,39452,United States
The Thrifty Thrush,105 East Hensley Street,,Branson,MO,65616,United States
Thru The House,104 N. Muskogee Ave.,,Tahlequah,OK,74464,United States
Tidbits and Treasures Canada,23721 Hwy 48,Units 2 & 3,Baldwin,ON,L0E1A0,Canada
Time & Again,2514 Krenek Road,,Crosby,TX,77532,United States
Time and Time Again,3828 W. Navy Blvd,,Pensacola,FL,32507,United States
Time Capsule Antiques & More,23 Plaistow Rd.,Unit 1A,Plaistow,NH,3865,United States
Time Machine Antique Mall,190 Mid Rivers Center,,St. Peters,MO,63376,United States
Time Travelers,18138 Main St.,,Jamestown,CA,95327,United States
Time Travelers Antique Mall,1486 18th Street,,Springfield,OR,97477,United States
Timeless Attic Antique Market,1260 State Route 43,,Mogadore,OH,44260,United States
Timeless Designs Market,110 East Alamo Street,,Brenham,TX,77833,United States
Timeless Furnishings,1918 Chester Avenue,,Bakersfield,CA,93301,United States
Timeless Treasures,217 North A Street,,McAlester,OK,74501,United States
Timeless Treasures on O Street,1717 O Steet,,Lincoln,NE,68508,United States
Tin Rooster,,,Northport,NY,,United States
Tina's Treasures,,,Corinth,MS,,United States
Tiny's Treasure Chest,220 West Plum Street,Suite 200,Edinboro,PA,16412,United States
Tip Top Gifts & Antiques,662 Pembrook Rd.,,Wray,GA,31798,United States
Tipsy Chicks,701 6th St.,,Prosser,WA,99350,United States
TLC Gifts,Shoppingtown Mall,Shoppingtown Mall,DeWitt,NY,13214,United States
TN Flea,3012 Hwy 31W,,White House,TN,37188,United States
Toscoga Marketplace,209 South Broad St.,,Thomasville,GA,,United States
Touch of Country Mall,5640 E. Highland Rd.,,Howell,MI,48843,United States
Town & Country Antiques,244 Main St. E,,Menomonie,WI,54751,United States
Town Square Antique Mall,102 College St.,,Sulphur Springs,TX,75482,United States
The Town Square Antique Mall,15362 Veterans Memorial Pkwy.,Suite 101,Wentzville,MO,63385,United States
Tra Vigne,115 E. Main St.,,Walla Walla,WA,99362,United States
Trader Bo's,7201 North 9th Avenue,Suite A-1,Pensacola,FL,32504,United States
Trader Bucks Flea Market,1921 E. 53rd Street,,Anderson,IN,46013,United States
Trader Bucks Flea Market,1659 Eastway Drive,,Crawfordsville,IN,47933,United States
Trader Bucks Flea Market,190 Old Farm Road,,Danville,IN,46122,United States
Trader Bucks Flea Market,150 South Girls School Road,aka Rockville Rd,Indianapolis,IN,,United States
Trader Bucks Flea Market,2330 Sagamore Parkway South,,Lafayette,IN,47905,United States
Trader Bucks Flea Market,1800 Fort Harrison Road,,Terre Haute,IN,47804,United States
Trader Bucks Office,3443 Seaway Drive,,Indianapolis,IN,46214,United States
"Traders Auction Market, LLC.",711 Sheridan St.,,Richmond,IN,47374,United States
Trash & Treasure Shop,,,Pampa,TX,,United States
Travelers Antiques,707 Milford Rd.,,Merrimac,NH,3054,United States
Treasure Bay Landing,13424  1st Ave. South,,Burien,WA,98168,United States
The Treasure Box,1711 Thomas Dr.,,Panama City Beach,FL,32408,United States
The Treasure Chest,1428 Freeman Ave.,,Athens,AL,35613,United States
The Treasure Chest Antiques & Collectibles,610 S. Main St.,,Elmira,NY,14904,United States
Treasure Chest Outlet,,,Cartersville,GA,,United States
Treasure City Market,121 S. Washington St.,,Deridder,LA,70634,United States
Treasure Cove Mall,118 E. Commerce,,Jacksonville,TX,75766,United States
Treasure Dawgs,,,Marietta,GA,,United States
"Treasure House Antiques, LLC",738 Lake Martha Dr. NE,,Winter Haven,FL,33881,United States
"Treasure House Antiques, LLC 2",,,Winter Haven,FL,,United States
Treasure Hunters,,,Double Springs,AL,,United States
Treasure Island Antiques and Collectibles Mall,4212 East Kiehl Ave.,,Sherwood,AR,72120,United States
Treasure of the Past,1106 N. Commercial St.,A,Harrisonville,MO,64701,United States
The Treasure Shed,1110 Hwy 7 East,,Hutchinson,MN,55350,United States
Treasure Trove Vintage Flea Market,3706 New Boston Rd.,,Texarkana,TX,75501,United States
Treasures,8243 Main Street,,Brent,AL,35034,United States
Treasures,202 W. Main St.,,Florence,CO,81226,United States
Treasures,475 Morro Bay Blvd.,,Morro Bay,CA,93442,United States
Treasures,26012 Cox Rd.,,Petersburg,VA,,United States
Treasures Antique Mall,,,Cookeville,TN,,United States
Treasures of Old Antiques,,,Marion,IL,,United States
Trends & Traditions Antique Mall,2834 Washington Rd.,,Augusta,GA,30909,United States
Trends & Traditions Vintage Village,10503 Maumelle Blvd,#B,North Little Rock,AR,72113,United States
"Trends Vintage Marketplace & Co, LLC",161 Locust Street,,Redding,CA,96001,United States
True Vine Antiques and Finds,2105 Main St.,,Hazel Green,WI,53811,United States
Trussell Station Antiques,800 Binah Shore Boulevard,,Winchester,TN,,United States
Tumbleweed & Company,515 Vernon St.,#100,Roseville,CA,95678,United States
Turin Road Treasures,,,Rome,NY,,United States
The Turquoise Couch,8751-A N 117th E Ave,,Owasso,OK,74055,United States
Turtle Girls PCB,7930 Front Beach Rd,,Panama City Beach,FL,32407,United States
Tuskaloosa Pickers,1625 Skyland Blvd.,,Tuscaloosa,AL,35404,United States
Twenty-Five Trading Co.,114 West Main St.,,Ada,OK,74820,United States
Twin Rivers Local Vintage,791 South Babcock Street,,Melbourne,FL,32951,United States
The Twisted Magnolia LLC,3148 West Cary Street,,Richmond,VA,23111,United States
Twisted Tree Market,7670 Old Madison Pike,,Madison,AL,35758,United States
Twisted Vintage Flea Market,,,Bismarck,AR,,United States
Two Brand It,4857 N. Main St.,Suite 240,Acworth,GA,30101,United States
Two Brand It,921 Loop 332,,Liberty Hill,TX,78642,United States
Two Sisters and a Warehouse,3023 West Farmington Rd.,,W. Peoria,IL,61604,United States
Two Times New,2028 Plank Rd.,,Fredericksburg,VA,22401,United States
Under the Sun,1903 Old Swede Rd.,,Douglassville,PA,19518,United States
Un-Earthed Treasure,215 West Broadway Street,,Muskogee,OK,74401,United States
Uneek Findings LLC,5901 Lomas Blvd,,Albuquerque,NM,87110,United States
Unexpected Treasures,,,Clarksville,TN,37040,United States
Union St. Antiques,19 Union St.,,Rochester,NH,3867,United States
The Unique Antique Shop,4559 N US HWY 1,,Ft. Pierce,FL,34946,United States
Unique Antiques & Collectibles,,,Marshfield,MO,,United States
Unique Finds,10 S. Pinellas Ave.,,Tarpon Springs,FL,34689,United States
Unique Upscale Resale,4335 York Road,,New Oxford,PA,17350,United States
Unique Vintiques Market,223 S. Muskogee Ave.,,Tahlequah,OK,74464,United States
Unique Vintiques Market # 2,17310 S. Muskogee,,Tahlequah,OK,74464,United States
Uniques & Antiques,124 S. Cloverdale Blvd.,,Cloverdale,CA,95425,United States
University Pickers,3024 University Dr.,,Huntsville,AL,35816,United States
University Pickers Birmingham,6200 Grand River Blvd. E,Suite 672,Leeds,AL,35094,United States
Unusual Objects,459 US Hwy 96 S,,Pineland,TX,75968,United States
Upcycle Boutique VA,14926 Spotswood Trail,,Ruckersville,VA,22968,United States
Upper Westside Interiors,,,Atlanta,GA,,United States
Upscale Marketplace,,,Miami,FL,,United States
Upstairs Marketplace LLC,1608 North Main Street,,Mountain Grove,MO,65711,United States
Upstate Antique Center,22 Locust St.,,Waterloo,NY,13165,United States
Uptown Antique Market,1365 George Washington Way,,Richland,WA,99354,United States
Uptown Marketplace,3830 Washington Rd.,#15,Augusta,GA,30907,United States
Uptown Vintage and Antique Market,1024 South Harbor City Blvd.,,Melbourne,FL,32901,United States
The Urban Barn,,,Birmingham,AL,,United States
Urban Suburban Antiques,5514 Crestwood Blvd.,,Birmingham,AL,35212,United States
Urbanite,1005 SW Grand Ave,,Portland,OR,97214,United States
The Valley Collective,419 Snake River Ave.,,Lewiston,ID,83501,United States
Valley Vintage,168 South Valley Rd.,,West Orange,NJ,7052,United States
Vaughn Collectibles,4545 Transit Rd.,Suite 654,Williamsville,NY,14221,United States
The Veranda Marketplace,9094 Goodman Road,,Olive Branch,MS,38654,United States
Vera's House Beautiful,,,Loveland,CO,,United States
Vette City Antique Mall,778 Interstate Drive,,Bowling Green ,KY,42101,United States
Vibe,"216 S. Main St.,",,McGregor,TX,76657,United States
Vicki Lynn's Place,290 West Main Street,,Wytheville,VA,24382,United States
Vic's Antiques,11490 N. US31,,Edinburgh,IN,46124,United States
Victory Antiques & Collectibles,1650 East Victory Drive,,Savannah,GA,31404,United States
Vignettes Gayton,9756 Gayton Rd.,,Richmond,VA,23238,United States
The Village Antique and Home Decor Mall,1375 Volunteer Parkway,,Bristol,TN,,United States
The Village Antique and Home Decor Mall,102 Hudson Dr,,Elizabethton,TN,37643,United States
The Village Antique and Home Decor Mall,112 Sunset Dr.,Suite 1A,Johnson City,TN,37601,United States
The Village Barn Country Store & Antiques,953 Victory Hwy,,Mapleville,RI,2839,United States
Village Flea Market & Monograms,82244 Hwy. 25,,Folsom,LA,70437,United States
The Village Marketplace,201 East Main St.,,Bennettsville,SC,29512,United States
The Village Sampler,155 Ave. B SW,,Winter Haven,FL,33880,United States
The Vilonia Treasure Chest,1048 Main Street,,Vilonia,AR,72173,United States
Vineyard Antique Mall,2320A Ramada Drive,,Paso Robles,CA,93446,United States
Vintage 41 Antiques & More,221 Main St.,,Tifton,GA,31794,United States
Vintage 72,7186 Hwy 72 West,,Madison,AL,35758,United States
Vintage Alley,317 North 6th Ave.,,Wauchula,FL,33873,United States
Vintage Antiques & Uniques,811 C Street,,Galt,CA,95632,United States
The Vintage Attic,128 John King Rd.,Suite 16,Crestview,FL,32539,United States
The Vintage Attic,105 E. Dewey St.,,Sapulpa,OK,74066,United States
Vintage Back Roads,6193 Hwy Blvd.,Ste 209,Katy,TX,77494,United States
The Vintage Cellar,11 Bridge St.,,Northampton,MA,6010,United States
Vintage Chaos,37C SW First Lane,,Lamar,MO,64759,United States
The Vintage Corner,1191C Ft Campbell Blvd,,Clarksville,TN,37042,United States
The Vintage Cowgirl Antique Mall,3108 Bloomingdale Road,,Kingsport,TN,37660,United States
Vintage Daze,213 E. Central Ave.,,Belton,TX,76513,United States
Vintage Depot,94 Merchants Row,,Rutland,VT,5701,United States
The Vintage Farm House,310 S. Broad St.,,Holly,MI,48442,United States
Vintage Gifts & Antiques,11503 Jones Rd.,,Houston,TX,77070,United States
Vintage Girls & That Guy,710 Robb Street,,Summit,MS,39666,United States
Vintage Hendo,1986 Haywood Rd.,,Hendersonville,NC,28791,United States
The Vintage Industry,143 21st Street,,Springfield,OR,97477,United States
The Vintage Inspired,52530 N. Main St.,,Mattawan,MI,49071,United States
Vintage Interiors,2838 Pelham Pkwy.,,Pelham,AL,35124,United States
Vintage Junktion,1736 Watson Blvd.,,Warner Robins,GA,31093,United States
Vintage Market & Design,,,Albuquerque,NM,,United States
The Vintage Market,1135 West Morris Blvd.,,Morristown,TN,37813,United States
Vintage Market and Paint Studio,2345 Whiteburg Dr.,,Huntsville,AL,35801,United States
Vintage Market Place on 2nd St.,2033 2nd Street,,Selma,CA,93662,United States
Vintage Mercantile,306 West Main,,Denison,TX,75020,United States
Vintage on 3rd,302 State Ave.,,Marysville,WA,98270,United States
Vintage on Main,205 South Main Street,,Jefferson,WI,53549,United States
The Vintage Owl,1353 Sycamore Square,,Midlothian,VA,23113,United States
Vintage Patina,131 Cedar St. W.,,Annandale,MN,55302,United States
The Vintage Peddler,1750 East Los Angeles Avenuse,Suite E,Simi Valley,CA,93065,United States
Vintage Phoenix,701 W. Washington St.,,Broken Arrow,OK,74012,United States
Vintage Plus,N2544 Cty Rd QQ,Bldg. B,Waupaca,WI,54981,United States
Vintage Pointe Marketplace,1723 S. Highway 71 E.,,Mansfield,AR,72944,United States
Vintage Restoration Station,709 E. Morris Blvd.,,Morristown,TN,37813,United States
Vintage Rose,105 East Dewey Ave.,,Sapulpa,OK,74066,United States
The Vintage Rose,219 West Main St.,,Norman,OK,73069,United States
Vintage Soul,12455 S. Harrells Ferry Rd.,,Baton Rouge,LA,70816,United States
Vintage Soul Market,105 Est Dame Ave,,Homerville,GA,31634,United States
Vintage Treasures,105 North Court Square,,Waverly,TN,37185,United States
The Vintage Vendor,117 East Grayson St.,,Galax,VA,24333,United States
The Vintage Veteran Antiques and More,2905 Duff Road,,Lakeland,FL,33810,United States
Vintage VibeÂ… Something for Everyone,4212 Hwy. 90,,Pace,FL,32571,United States
Vintage View,371 River St.,,Haverhill,MA,1832,United States
Vintage Villa Junque 2 Jewels,1931 Maplewood Dr.,,Sulphur,LA,70663,United States
Vintage Village,235 Dorris Place,,Stockton,CA,95204,United States
Vintage Village Flea Market,RR3 Box 5788,,Doniphan,MO,,United States
"Vintage, Etc.",3000 Tazewell Pike,,Knoxville,TN,37918,United States
Vinterest Antiques,1205 Northpoint Blvs.,,Hixson,TN,37343,United States
Vinterest Nashville,,,Chattanooga,TN,,United States
Vinterest Southside,2121 Chestnut St.,,Chattanooga,TN,37408,United States
Vintiques Home Decor,105 W. Chapman Ave.,,Orange,CA,92866,United States
Vintiques Home Decor II,401 W. Chapman Ave.,,Orange,CA,92866,United States
Vinton Farmhouse Market,1319 Horridge St.,,Vinton,LA,70668,United States
Visalia Vintage & Antiques,2700 Mooney,,Visalia,CA,93277,United States
VSK Emporium,54 West Main St.,,Frewsburg,NY,14738,United States
Vynterest Antiques & Flips,326 Nashua St.,,Nashua,NH,,United States
Wagon Wheel Antique Mall,3130 NW Bonnie Heath Blvd.,,Ocala,FL,34475,United States
Wags Antique and Furniture,1924 Reeves St.,210,Dothan,AL,36303,United States
Wally's Castle,3637 Clyde Park Avenue,Suite 3,Wyoming,MI,49509,United States
Wally's Treasures Antique Mall,1438 28th St SE,,Grand Rapids,MI,49508,United States
The Warehouse,706 Center St.,,Benton,AR,72015,United States
Warehouse 23,306 Congress Parkway S.,,Athens,TN,37303,United States
Warehouse 41 Vintage Market,,,Clarksville,TN,,United States
Warehouse '47,113 Washington St.,,Doniphan,MO,63935,United States
Warehouse Forty One,1214 College St.,,Clarksville,TN,37040,United States
Water Street Vintage,207 West North Water Street,,New London,WI,54961,United States
Waterford Unique Antique Market,,,Waterford,WI,,United States
Waterside Furnishing & Decor ,357 Scotland St.,,Dunedin,FL,34698,United States
Watertown Antiques & Vintage,210 S. Water St.,,Watertown,WI,53094,United States
Waxhaw Antique Mart,101 West South Main St.,,Waxhaw,NC,28173,United States
WBY Outfitters,5523 S. 1900 W.,Suite 13,Roy,UT,84067,United States
"The Weathered Willow Market, Ltd.",2312 W. 17th St.,,Greeley,CO,80634,United States
Wee Market,1882 Andorra St.,,Navarre,FL,32566,United States
Weeden's Mini Mall,8056 State Route 13,,Blossvale,NY,13308,United States
West End Antiques,119 North Trade St.,,West End,NC,27376,United States
West End Antiques Mall,2004 Staples Mill Rd.,,Richmond,VA,23230,United States
West Feliciana Antique Mall,7134-A US Hwy 61,,St. Francisville,LA,70775,United States
Westfield Village Antique Center,,,Westfield,NY,,United States
Westside Treasures,1813 National Road,,Richmond,IN,,United States
What Women Want,,,Waycross,GA,,United States
What's In Your Attic?,4545 Transit Rd.,Suite 444,Williamsville,NY,14221,United States
What's on 2nd,2306 2nd Ave N,,Birmingham,AL,35203,United States
Whipple Tree Country Store,443 The Queensway S,Unit 15,Keswick,ON,L4P 1J3,Canada
Whipple Tree Country Store,5189 Baseline Rd.,,Sutton,ON,L0E 1R0,Canada
Whiskey Flat Antiques and Gifts,13 Big Blue Rd.,,Kernville,CA,93238,United States
Whistle Stop Antiques,604 E Cerro Gordo St,,Decatur,IL,62523,United States
"The Whistle Stop, LLC",,,Middletown,DE,,United States
Whistle-Stop Antiques,1122 East Austin St.,,Giddings,TX,78942,United States
White Barn Vintage,711 Pocket Road,,Hurt,VA,24563,United States
White Oaks Dragonfly Antiques,7085 N. 35th Ave.,,Pawnee,IL,62558,United States
Whitesville Mercantile,9935 West Street,,Whitesville,KY,42378,United States
Whitney Hill Antiques,122 Main St.,,Greenfield,MA,1301,United States
Whitney Hill at the Gables,,,South Deerfield,MA,,United States
Whizcows 40 Hwy Fleamarket,9628 E. 40 Hwy,,Independence,MO,64055,United States
Wild Bunch,1218 North Jesse James Road,,Excelsior Springs,MO,64024,United States
Wild Rivers Antiques & Gifts Mall,16218 B Hoffeldt Ln.,,Brookings,OR,97415,United States
Wild West Flea Market,121 East Buchanan,,Prairie Grove,AR,72753,United States
Williamsburg Vendors Mall,1000 South US Highway 25-W,,Williamsburg,KY,40769,United States
The Willow Cottage,109 S. Marion St.,,Athens,AL,35611,United States
"Willow Creek Antiques & Collectibles, LLC",619 State St.,,Bristol,VA,24201,United States
Willow Tree Consignments,835 E. Poplar St. Unit 1,,Harrisburg,IL,62946,United States
Willow's Antiques,2718 N. Main St.,,Anderson,SC,29621,United States
Wills Creek Big Warehouse,2780 Wills Creek Rd.,,Gadsden,AL,35904,United States
Windy Acres Antiques,16 West 1250 South,,Battle Ground,IN,47920,United States
Wisconsin Dells Antique Mall,S2279 Timothy Lane,,Baraboo,WI,53913,United States
Wisconsin Dells Craft Mall,S2269 Timothy Lane,,Baraboo,WI,53913,United States
The Wish List * Antiques Interiors,"1409-B N. Highland Avenue, NE",,Atlanta,GA,30306,United States
Wisteria,125 East Broad St.,,Dunn,NC,28334,United States
Wisteria Lane Antiques & Home Decor,195 Raymond Hill Rd.,,Newnan,GA,30265,United States
Wizard of Odds 1,,,Youngstown,OH,44515,United States
Wolf Hills Antiques,280 West Main St.,,Abingdon,VA,24210,United States
Woody's Flea Market,115 N. 12th Ave.,,Laurel,MS,39440,United States
The Wooly Lam,9422 Seminole Trail,,Ruckersville,VA,22968,United States
Wynola Junction Antiques & Collectibles,4326 Highway 78,,Julian,CA,92036,United States
Wyoming Sellers Market,330 N. Durbin,,Casper,WY,82601,United States
Yancy Bell's,210 Hwy 80,,Calhoun,LA,71225,United States
The Yankee Pedlar,220 Washington Ave.,,Grand Haven,MI,49417,United States
Ye Olde Red Door Antiques,6 E. Lafayette Square,,Lagrange,GA,30240,United States
Yellow Bear Market,642 College Hwy,,Southwich,MA,1077,United States
The Yellow Dog,1012 Hwy 62 West,,Pocahontas,AR,72455,United States
The Yellow Topaz,510 Concord Rd.,,Albemarle,NC,28001,United States
Yesterday's Treasures,6772 Highway 441 North,,Dillard,GA,30537,United States
Yesteryears Antiques & Collectibles,4806 Market Square Lane,,Midlothian,VA,23112,United States
The Young and the Rustic,902 Hardesty Ave.,,Seabrook,TX,77571,United States
Your Buried Treasures,300 East Bacon Street,Unit C,Lagrange,GA,30241,United States
Your Local Market,16 S. Broadway,Unit #20,Louisburg,KS,66053,United States
Zelda's Emporium,402 North Carver St.,,Winthrop,MN,55396,United States
Zephyr Antiques,270 W. Main St.,,Abingdon,VA,24210,United States
